{
"type": "FeatureCollection",
"name": "lirr_stations_01",
"crs": { "type": "name", "properties": { "name": "urn:ogc:def:crs:OGC:1.3:CRS84" } },
"features": [
{ "type": "Feature", "properties": { "full_id": "n1411748132", "osm_id": "1411748132", "osm_type": "node", "railway": "station", "addr:postcode": null, "addr:street": null, "addr:state": null, "addr:city": null, "website": null, "opening_hours": null, "owner": "Metropolitan Transit Authority", "image": null, "train": "yes", "platforms": null, "operator:wikidata": null, "old_name": null, "wikidata": "Q7586745", "wheelchair": null, "railway:ref": "SAB", "public_transport": "station", "operator": "Long Island Rail Road", "network": "LIRR", "name": "St. Albans" }, "geometry": { "type": "Point", "coordinates": [ -73.7655652, 40.6912611 ] } },
{ "type": "Feature", "properties": { "full_id": "n2506173946", "osm_id": "2506173946", "osm_type": "node", "railway": "station", "addr:postcode": null, "addr:street": null, "addr:state": null, "addr:city": null, "website": null, "opening_hours": null, "owner": null, "image": null, "train": "yes", "platforms": null, "operator:wikidata": "Q125943", "old_name": null, "wikidata": "Q4898094", "wheelchair": null, "railway:ref": "BPG", "public_transport": "station", "operator": "Long Island Rail Road", "network": "LIRR", "name": "Bethpage" }, "geometry": { "type": "Point", "coordinates": [ -73.4838143, 40.7432812 ] } },
{ "type": "Feature", "properties": { "full_id": "n7010189945", "osm_id": "7010189945", "osm_type": "node", "railway": "station", "addr:postcode": "11735", "addr:street": null, "addr:state": null, "addr:city": "Farmingdale", "website": null, "opening_hours": null, "owner": null, "image": null, "train": "yes", "platforms": null, "operator:wikidata": "Q125943", "old_name": null, "wikidata": "Q5435859", "wheelchair": null, "railway:ref": "FMD", "public_transport": "station", "operator": "Long Island Rail Road", "network": "LIRR", "name": "Farmingdale" }, "geometry": { "type": "Point", "coordinates": [ -73.4417524, 40.7356738 ] } },
{ "type": "Feature", "properties": { "full_id": "n7010189944", "osm_id": "7010189944", "osm_type": "node", "railway": "station", "addr:postcode": null, "addr:street": null, "addr:state": null, "addr:city": null, "website": null, "opening_hours": null, "owner": null, "image": null, "train": "yes", "platforms": null, "operator:wikidata": "Q125943", "old_name": null, "wikidata": "Q7576331", "wheelchair": null, "railway:ref": "SPK", "public_transport": "station", "operator": "Long Island Rail Road", "network": "LIRR", "name": "Speonk" }, "geometry": { "type": "Point", "coordinates": [ -72.7048381, 40.821215 ] } },
{ "type": "Feature", "properties": { "full_id": "n2982048921", "osm_id": "2982048921", "osm_type": "node", "railway": "station", "addr:postcode": null, "addr:street": null, "addr:state": null, "addr:city": null, "website": null, "opening_hours": null, "owner": "Metropolitan Transit Authority", "image": "https://upload.wikimedia.org/wikipedia/commons/9/90/Island_Park_LIRR_Station.JPG", "train": "yes", "platforms": null, "operator:wikidata": null, "old_name": null, "wikidata": "Q6083320", "wheelchair": null, "railway:ref": "IPK", "public_transport": "station", "operator": "Long Island Rail Road", "network": "LIRR", "name": "Island Park" }, "geometry": { "type": "Point", "coordinates": [ -73.6550476, 40.6009894 ] } },
{ "type": "Feature", "properties": { "full_id": "n2970721104", "osm_id": "2970721104", "osm_type": "node", "railway": "station", "addr:postcode": null, "addr:street": null, "addr:state": null, "addr:city": null, "website": null, "opening_hours": null, "owner": "Metropolitan Transit Authority", "image": "https://upload.wikimedia.org/wikipedia/commons/1/1a/Locust_Manor_LIRR_Station-1.JPG", "train": "yes", "platforms": null, "operator:wikidata": null, "old_name": null, "wikidata": "Q6666141", "wheelchair": null, "railway:ref": "LMR", "public_transport": "station", "operator": "Long Island Rail Road", "network": "LIRR", "name": "Locust Manor" }, "geometry": { "type": "Point", "coordinates": [ -73.7650075, 40.6751033 ] } },
{ "type": "Feature", "properties": { "full_id": "n7089672824", "osm_id": "7089672824", "osm_type": "node", "railway": "station", "addr:postcode": null, "addr:street": null, "addr:state": null, "addr:city": null, "website": null, "opening_hours": null, "owner": null, "image": null, "train": "yes", "platforms": null, "operator:wikidata": null, "old_name": null, "wikidata": "Q6819441", "wheelchair": "yes", "railway:ref": "MAV", "public_transport": "station", "operator": "Long Island Rail Road", "network": "LIRR", "name": "Merillon Avenue" }, "geometry": { "type": "Point", "coordinates": [ -73.6612889, 40.7354564 ] } },
{ "type": "Feature", "properties": { "full_id": "n7089672822", "osm_id": "7089672822", "osm_type": "node", "railway": "station", "addr:postcode": null, "addr:street": null, "addr:state": null, "addr:city": null, "website": null, "opening_hours": null, "owner": null, "image": null, "train": "yes", "platforms": "2", "operator:wikidata": null, "old_name": null, "wikidata": "Q6864198", "wheelchair": "yes", "railway:ref": "MIN", "public_transport": "station", "operator": "Long Island Rail Road", "network": "LIRR", "name": "Mineola" }, "geometry": { "type": "Point", "coordinates": [ -73.6405732, 40.7404084 ] } },
{ "type": "Feature", "properties": { "full_id": "n7089672830", "osm_id": "7089672830", "osm_type": "node", "railway": "station", "addr:postcode": null, "addr:street": null, "addr:state": null, "addr:city": null, "website": null, "opening_hours": null, "owner": null, "image": null, "train": "yes", "platforms": null, "operator:wikidata": null, "old_name": null, "wikidata": "Q4883817", "wheelchair": null, "railway:ref": "BRS", "public_transport": "station", "operator": "Long Island Rail Road", "network": "LIRR", "name": "Bellerose" }, "geometry": { "type": "Point", "coordinates": [ -73.7166765, 40.7221566 ] } },
{ "type": "Feature", "properties": { "full_id": "n7089672825", "osm_id": "7089672825", "osm_type": "node", "railway": "station", "addr:postcode": null, "addr:street": null, "addr:state": null, "addr:city": null, "website": null, "opening_hours": null, "owner": null, "image": null, "train": "yes", "platforms": null, "operator:wikidata": null, "old_name": null, "wikidata": "Q7008901", "wheelchair": "yes", "railway:ref": "NHP", "public_transport": "station", "operator": "Long Island Rail Road", "network": "LIRR", "name": "New Hyde Park" }, "geometry": { "type": "Point", "coordinates": [ -73.6805499, 40.7308451 ] } },
{ "type": "Feature", "properties": { "full_id": "n7087064771", "osm_id": "7087064771", "osm_type": "node", "railway": "station", "addr:postcode": null, "addr:street": null, "addr:state": null, "addr:city": null, "website": null, "opening_hours": null, "owner": null, "image": null, "train": "yes", "platforms": null, "operator:wikidata": "Q125943", "old_name": null, "wikidata": "Q4816574", "wheelchair": "yes", "railway:ref": "ATL", "public_transport": "station", "operator": "Long Island Rail Road", "network": "LIRR", "name": "Atlantic Terminal" }, "geometry": { "type": "Point", "coordinates": [ -73.9773109, 40.6846601 ] } },
{ "type": "Feature", "properties": { "full_id": "n42841012", "osm_id": "42841012", "osm_type": "node", "railway": "station", "addr:postcode": null, "addr:street": null, "addr:state": null, "addr:city": null, "website": null, "opening_hours": null, "owner": "Metropolitan Transit Authority", "image": "https://upload.wikimedia.org/wikipedia/commons/5/56/Laurelton_LIRR_Station_Staircase.jpg", "train": "yes", "platforms": null, "operator:wikidata": "Q125943", "old_name": null, "wikidata": "Q6500093", "wheelchair": "yes", "railway:ref": "LTN", "public_transport": "station", "operator": "Long Island Rail Road", "network": "LIRR", "name": "Laurelton" }, "geometry": { "type": "Point", "coordinates": [ -73.7518434, 40.668518 ] } },
{ "type": "Feature", "properties": { "full_id": "n3316041299", "osm_id": "3316041299", "osm_type": "node", "railway": "station", "addr:postcode": null, "addr:street": null, "addr:state": null, "addr:city": null, "website": null, "opening_hours": null, "owner": null, "image": null, "train": "yes", "platforms": null, "operator:wikidata": "Q125943", "old_name": null, "wikidata": "Q7662967", "wheelchair": null, "railway:ref": "SYT", "public_transport": "station", "operator": "Long Island Rail Road", "network": "LIRR", "name": "Syosset" }, "geometry": { "type": "Point", "coordinates": [ -73.5001887, 40.824926 ] } },
{ "type": "Feature", "properties": { "full_id": "n42840818", "osm_id": "42840818", "osm_type": "node", "railway": "station", "addr:postcode": null, "addr:street": null, "addr:state": null, "addr:city": null, "website": null, "opening_hours": null, "owner": null, "image": null, "train": "yes", "platforms": "2", "operator:wikidata": "Q125943", "old_name": "Maple Grove", "wikidata": "Q6397893", "wheelchair": null, "railway:ref": "KGN", "public_transport": "station", "operator": "Long Island Rail Road", "network": "LIRR", "name": "Kew Gardens" }, "geometry": { "type": "Point", "coordinates": [ -73.8307965, 40.7095633 ] } },
{ "type": "Feature", "properties": { "full_id": "n7089672821", "osm_id": "7089672821", "osm_type": "node", "railway": "station", "addr:postcode": null, "addr:street": null, "addr:state": null, "addr:city": null, "website": null, "opening_hours": null, "owner": null, "image": null, "train": "yes", "platforms": null, "operator:wikidata": "Q125943", "old_name": null, "wikidata": "Q7987192", "wheelchair": null, "railway:ref": "WBY", "public_transport": "station", "operator": "Long Island Rail Road", "network": "LIRR", "name": "Westbury" }, "geometry": { "type": "Point", "coordinates": [ -73.5858746, 40.7534447 ] } },
{ "type": "Feature", "properties": { "full_id": "n7087272768", "osm_id": "7087272768", "osm_type": "node", "railway": "station", "addr:postcode": null, "addr:street": null, "addr:state": null, "addr:city": null, "website": null, "opening_hours": null, "owner": null, "image": "https://upload.wikimedia.org/wikipedia/commons/f/f6/Jamaica_station_sunset%2C_waiting.jpg", "train": "yes", "platforms": null, "operator:wikidata": "Q125943", "old_name": null, "wikidata": "Q11310077", "wheelchair": "yes", "railway:ref": "JAM", "public_transport": "station", "operator": "Long Island Rail Road", "network": "LIRR", "name": "Jamaica" }, "geometry": { "type": "Point", "coordinates": [ -73.8077023, 40.699835 ] } },
{ "type": "Feature", "properties": { "full_id": "n261435822", "osm_id": "261435822", "osm_type": "node", "railway": "station", "addr:postcode": null, "addr:street": null, "addr:state": null, "addr:city": null, "website": null, "opening_hours": null, "owner": "Metropolitan Transit Authority", "image": "https://upload.wikimedia.org/wikipedia/commons/2/23/Centre_Avenue_LIRR_jeh.jpg", "train": "yes", "platforms": null, "operator:wikidata": null, "old_name": "South Lynbrook", "wikidata": "Q5062228", "wheelchair": "yes", "railway:ref": "CAV", "public_transport": "station", "operator": "Long Island Rail Road", "network": "LIRR", "name": "Centre Avenue" }, "geometry": { "type": "Point", "coordinates": [ -73.663821, 40.6481684 ] } },
{ "type": "Feature", "properties": { "full_id": "n3309954363", "osm_id": "3309954363", "osm_type": "node", "railway": "station", "addr:postcode": "11801", "addr:street": null, "addr:state": "NY", "addr:city": "Hicksville", "website": null, "opening_hours": null, "owner": null, "image": null, "train": "yes", "platforms": null, "operator:wikidata": "Q125943", "old_name": null, "wikidata": "Q14706359", "wheelchair": "yes", "railway:ref": "HVL", "public_transport": "station", "operator": "Long Island Rail Road", "network": "LIRR", "name": "Hicksville" }, "geometry": { "type": "Point", "coordinates": [ -73.5286891, 40.7671292 ] } },
{ "type": "Feature", "properties": { "full_id": "n261434852", "osm_id": "261434852", "osm_type": "node", "railway": "station", "addr:postcode": null, "addr:street": null, "addr:state": null, "addr:city": null, "website": null, "opening_hours": null, "owner": "Metropolitan Transit Authority", "image": "https://upload.wikimedia.org/wikipedia/commons/2/22/LIRR_Train_853_leaves_Lynbrook.jpg", "train": "yes", "platforms": null, "operator:wikidata": null, "old_name": "Pearsall's", "wikidata": "Q6708390", "wheelchair": null, "railway:ref": "LYN", "public_transport": "station", "operator": "Long Island Rail Road", "network": "LIRR", "name": "Lynbrook" }, "geometry": { "type": "Point", "coordinates": [ -73.6752222, 40.6559054 ] } },
{ "type": "Feature", "properties": { "full_id": "n213962948", "osm_id": "213962948", "osm_type": "node", "railway": "station", "addr:postcode": null, "addr:street": null, "addr:state": null, "addr:city": null, "website": null, "opening_hours": null, "owner": null, "image": null, "train": "yes", "platforms": null, "operator:wikidata": null, "old_name": null, "wikidata": "Q5168571", "wheelchair": null, "railway:ref": "CPG", "public_transport": "station", "operator": null, "network": "LIRR", "name": "Copiague" }, "geometry": { "type": "Point", "coordinates": [ -73.3990189, 40.6810465 ] } },
{ "type": "Feature", "properties": { "full_id": "n3359967108", "osm_id": "3359967108", "osm_type": "node", "railway": "station", "addr:postcode": null, "addr:street": null, "addr:state": null, "addr:city": null, "website": null, "opening_hours": null, "owner": null, "image": null, "train": "yes", "platforms": null, "operator:wikidata": "Q125943", "old_name": null, "wikidata": "Q6412982", "wheelchair": null, "railway:ref": "KPK", "public_transport": "station", "operator": "Long Island Rail Road", "network": "LIRR", "name": "Kings Park" }, "geometry": { "type": "Point", "coordinates": [ -73.2546018, 40.8838178 ] } },
{ "type": "Feature", "properties": { "full_id": "n7091074128", "osm_id": "7091074128", "osm_type": "node", "railway": "station", "addr:postcode": null, "addr:street": null, "addr:state": null, "addr:city": null, "website": null, "opening_hours": null, "owner": null, "image": null, "train": "yes", "platforms": null, "operator:wikidata": "Q125943", "old_name": null, "wikidata": "Q7429322", "wheelchair": null, "railway:ref": "SVL", "public_transport": "station", "operator": "Long Island Rail Road", "network": "LIRR", "name": "Sayville" }, "geometry": { "type": "Point", "coordinates": [ -73.0863591, 40.7403862 ] } },
{ "type": "Feature", "properties": { "full_id": "n3355304903", "osm_id": "3355304903", "osm_type": "node", "railway": "station", "addr:postcode": null, "addr:street": null, "addr:state": null, "addr:city": null, "website": null, "opening_hours": null, "owner": null, "image": null, "train": "yes", "platforms": null, "operator:wikidata": null, "old_name": null, "wikidata": "Q5748552", "wheelchair": null, "railway:ref": "HWT", "public_transport": "station", "operator": "Long Island Rail Road", "network": "LIRR", "name": "Hewlett" }, "geometry": { "type": "Point", "coordinates": [ -73.7049775, 40.63683 ] } },
{ "type": "Feature", "properties": { "full_id": "n276319410", "osm_id": "276319410", "osm_type": "node", "railway": "station", "addr:postcode": null, "addr:street": "Borden Avenue", "addr:state": "NY", "addr:city": "Long Island City", "website": null, "opening_hours": null, "owner": null, "image": null, "train": "yes", "platforms": null, "operator:wikidata": "Q125943", "old_name": null, "wikidata": "Q6672667", "wheelchair": null, "railway:ref": "LIC", "public_transport": "station", "operator": "Long Island Rail Road", "network": "LIRR", "name": "Long Island City" }, "geometry": { "type": "Point", "coordinates": [ -73.9569751, 40.7415095 ] } },
{ "type": "Feature", "properties": { "full_id": "n7091074126", "osm_id": "7091074126", "osm_type": "node", "railway": "station", "addr:postcode": null, "addr:street": null, "addr:state": null, "addr:city": null, "website": null, "opening_hours": null, "owner": null, "image": null, "train": "yes", "platforms": null, "operator:wikidata": "Q125943", "old_name": null, "wikidata": "Q7144368", "wheelchair": null, "railway:ref": "PD", "public_transport": "station", "operator": "Long Island Rail Road", "network": "LIRR", "name": "Patchogue" }, "geometry": { "type": "Point", "coordinates": [ -73.0157546, 40.7618286 ] } },
{ "type": "Feature", "properties": { "full_id": "n7091074130", "osm_id": "7091074130", "osm_type": "node", "railway": "station", "addr:postcode": null, "addr:street": null, "addr:state": null, "addr:city": null, "website": null, "opening_hours": null, "owner": null, "image": null, "train": "yes", "platforms": null, "operator:wikidata": "Q125943", "old_name": null, "wikidata": "Q14707125", "wheelchair": null, "railway:ref": "ODL", "public_transport": "station", "operator": "Long Island Rail Road", "network": "LIRR", "name": "Oakdale" }, "geometry": { "type": "Point", "coordinates": [ -73.1323922, 40.7434094 ] } },
{ "type": "Feature", "properties": { "full_id": "n1934626657", "osm_id": "1934626657", "osm_type": "node", "railway": "station", "addr:postcode": null, "addr:street": null, "addr:state": null, "addr:city": null, "website": null, "opening_hours": null, "owner": null, "image": null, "train": "yes", "platforms": null, "operator:wikidata": "Q125943", "old_name": null, "wikidata": "Q6651110", "wheelchair": null, "railway:ref": "LNK", "public_transport": "station", "operator": "Long Island Rail Road", "network": "LIRR", "name": "Little Neck" }, "geometry": { "type": "Point", "coordinates": [ -73.7412564, 40.7745338 ] } },
{ "type": "Feature", "properties": { "full_id": "n7091074129", "osm_id": "7091074129", "osm_type": "node", "railway": "station", "addr:postcode": null, "addr:street": null, "addr:state": null, "addr:city": null, "website": null, "opening_hours": null, "owner": null, "image": null, "train": "yes", "platforms": null, "operator:wikidata": "Q125943", "old_name": null, "wikidata": "Q6084415", "wheelchair": null, "railway:ref": "ISP", "public_transport": "station", "operator": "Long Island Rail Road", "network": "LIRR", "name": "Islip" }, "geometry": { "type": "Point", "coordinates": [ -73.2093348, 40.7358357 ] } },
{ "type": "Feature", "properties": { "full_id": "n1934626656", "osm_id": "1934626656", "osm_type": "node", "railway": "station", "addr:postcode": null, "addr:street": null, "addr:state": null, "addr:city": null, "website": null, "opening_hours": null, "owner": null, "image": null, "train": "yes", "platforms": null, "operator:wikidata": "Q125943", "old_name": null, "wikidata": "Q4819347", "wheelchair": null, "railway:ref": "ADL", "public_transport": "station", "operator": "Long Island Rail Road", "network": "LIRR", "name": "Auburndale" }, "geometry": { "type": "Point", "coordinates": [ -73.7897239, 40.7614516 ] } },
{ "type": "Feature", "properties": { "full_id": "n7089672843", "osm_id": "7089672843", "osm_type": "node", "railway": "station", "addr:postcode": null, "addr:street": null, "addr:state": null, "addr:city": null, "website": null, "opening_hours": null, "owner": null, "image": null, "train": "yes", "platforms": "2", "operator:wikidata": "Q125943", "old_name": null, "wikidata": "Q7270830", "wheelchair": null, "railway:ref": "QVG", "public_transport": "station", "operator": "Long Island Rail Road", "network": "LIRR", "name": "Queens Village" }, "geometry": { "type": "Point", "coordinates": [ -73.7359328, 40.7175718 ] } },
{ "type": "Feature", "properties": { "full_id": "n1934626660", "osm_id": "1934626660", "osm_type": "node", "railway": "station", "addr:postcode": null, "addr:street": null, "addr:state": null, "addr:city": null, "website": null, "opening_hours": null, "owner": null, "image": null, "train": "yes", "platforms": null, "operator:wikidata": "Q125943", "old_name": null, "wikidata": "Q5302198", "wheelchair": null, "railway:ref": "DGL", "public_transport": "station", "operator": "Long Island Rail Road", "network": "LIRR", "name": "Douglaston" }, "geometry": { "type": "Point", "coordinates": [ -73.7492477, 40.768358 ] } },
{ "type": "Feature", "properties": { "full_id": "n276018599", "osm_id": "276018599", "osm_type": "node", "railway": "station", "addr:postcode": null, "addr:street": null, "addr:state": null, "addr:city": null, "website": null, "opening_hours": null, "owner": null, "image": null, "train": "yes", "platforms": null, "operator:wikidata": "Q125943", "old_name": null, "wikidata": "Q6825413", "wheelchair": null, "railway:ref": "SSM", "public_transport": "station", "operator": "Long Island Rail Road", "network": "LIRR", "name": "Mets–Willets Point" }, "geometry": { "type": "Point", "coordinates": [ -73.8441172, 40.7524337 ] } },
{ "type": "Feature", "properties": { "full_id": "n7089672831", "osm_id": "7089672831", "osm_type": "node", "railway": "station", "addr:postcode": null, "addr:street": null, "addr:state": null, "addr:city": null, "website": null, "opening_hours": null, "owner": null, "image": null, "train": "yes", "platforms": null, "operator:wikidata": "Q125943", "old_name": null, "wikidata": "Q4884403", "wheelchair": "no", "railway:ref": "BRT", "public_transport": "station", "operator": "Long Island Rail Road", "network": "LIRR", "name": "Belmont Park" }, "geometry": { "type": "Point", "coordinates": [ -73.7283008, 40.7136689 ] } },
{ "type": "Feature", "properties": { "full_id": "n1934626659", "osm_id": "1934626659", "osm_type": "node", "railway": "station", "addr:postcode": null, "addr:street": null, "addr:state": null, "addr:city": null, "website": null, "opening_hours": null, "owner": null, "image": null, "train": "yes", "platforms": null, "operator:wikidata": "Q125943", "old_name": null, "wikidata": "Q7231024", "wheelchair": null, "railway:ref": "PWS", "public_transport": "station", "operator": "Long Island Rail Road", "network": "LIRR", "name": "Port Washington" }, "geometry": { "type": "Point", "coordinates": [ -73.6877785, 40.83021 ] } },
{ "type": "Feature", "properties": { "full_id": "n7091074125", "osm_id": "7091074125", "osm_type": "node", "railway": "station", "addr:postcode": null, "addr:street": null, "addr:state": null, "addr:city": null, "website": null, "opening_hours": null, "owner": null, "image": null, "train": "yes", "platforms": null, "operator:wikidata": "Q125943", "old_name": null, "wikidata": "Q4884135", "wheelchair": null, "railway:ref": "BPT", "public_transport": "station", "operator": "Long Island Rail Road", "network": "LIRR", "name": "Bellport" }, "geometry": { "type": "Point", "coordinates": [ -72.9437541, 40.7736847 ] } },
{ "type": "Feature", "properties": { "full_id": "n276233001", "osm_id": "276233001", "osm_type": "node", "railway": "station", "addr:postcode": null, "addr:street": null, "addr:state": null, "addr:city": null, "website": "http://www.mta.info/", "opening_hours": null, "owner": null, "image": null, "train": "yes", "platforms": null, "operator:wikidata": null, "old_name": null, "wikidata": "Q8033321", "wheelchair": null, "railway:ref": "WDD", "public_transport": "station", "operator": null, "network": "LIRR", "name": "Woodside" }, "geometry": { "type": "Point", "coordinates": [ -73.9032853, 40.7461604 ] } },
{ "type": "Feature", "properties": { "full_id": "n7091074122", "osm_id": "7091074122", "osm_type": "node", "railway": "station", "addr:postcode": null, "addr:street": null, "addr:state": null, "addr:city": null, "website": null, "opening_hours": null, "owner": null, "image": null, "train": "yes", "platforms": null, "operator:wikidata": "Q125943", "old_name": null, "wikidata": "Q6785537", "wheelchair": null, "railway:ref": "MSY", "public_transport": "station", "operator": "Long Island Rail Road", "network": "LIRR", "name": "Mastic–Shirley" }, "geometry": { "type": "Point", "coordinates": [ -72.8645208, 40.7989114 ] } },
{ "type": "Feature", "properties": { "full_id": "n276092543", "osm_id": "276092543", "osm_type": "node", "railway": "station", "addr:postcode": null, "addr:street": null, "addr:state": null, "addr:city": null, "website": null, "opening_hours": null, "owner": null, "image": null, "train": "yes", "platforms": null, "operator:wikidata": "Q125943", "old_name": null, "wikidata": "Q5462925", "wheelchair": "yes", "railway:ref": "FLS", "public_transport": "station", "operator": "Long Island Rail Road", "network": "LIRR", "name": "Flushing–Main Street" }, "geometry": { "type": "Point", "coordinates": [ -73.8298574, 40.7585195 ] } },
{ "type": "Feature", "properties": { "full_id": "n7091232853", "osm_id": "7091232853", "osm_type": "node", "railway": "station", "addr:postcode": null, "addr:street": null, "addr:state": null, "addr:city": null, "website": null, "opening_hours": null, "owner": null, "image": null, "train": "yes", "platforms": null, "operator:wikidata": "Q125943", "old_name": null, "wikidata": "Q5328539", "wheelchair": null, "railway:ref": "EHN", "public_transport": "station", "operator": "Long Island Rail Road", "network": "LIRR", "name": "East Hampton" }, "geometry": { "type": "Point", "coordinates": [ -72.1935105, 40.9650535 ] } },
{ "type": "Feature", "properties": { "full_id": "n7091232852", "osm_id": "7091232852", "osm_type": "node", "railway": "station", "addr:postcode": null, "addr:street": null, "addr:state": null, "addr:city": null, "website": null, "opening_hours": null, "owner": null, "image": null, "train": "yes", "platforms": null, "operator:wikidata": "Q125943", "old_name": null, "wikidata": "Q4739113", "wheelchair": null, "railway:ref": "AGT", "public_transport": "station", "operator": "Long Island Rail Road", "network": "LIRR", "name": "Amagansett" }, "geometry": { "type": "Point", "coordinates": [ -72.1326817, 40.9800246 ] } },
{ "type": "Feature", "properties": { "full_id": "n3369116796", "osm_id": "3369116796", "osm_type": "node", "railway": "station", "addr:postcode": null, "addr:street": null, "addr:state": null, "addr:city": "Hempstead", "website": null, "opening_hours": null, "owner": null, "image": null, "train": "yes", "platforms": "1", "operator:wikidata": null, "old_name": null, "wikidata": "Q5177347", "wheelchair": null, "railway:ref": "CLP", "public_transport": "station", "operator": "Long Island Rail Road", "network": "LIRR", "name": "Country Life Press" }, "geometry": { "type": "Point", "coordinates": [ -73.629545, 40.7213852 ] } },
{ "type": "Feature", "properties": { "full_id": "n7091232856", "osm_id": "7091232856", "osm_type": "node", "railway": "station", "addr:postcode": null, "addr:street": null, "addr:state": null, "addr:city": null, "website": null, "opening_hours": null, "owner": null, "image": null, "train": "yes", "platforms": null, "operator:wikidata": "Q125943", "old_name": null, "wikidata": "Q4049823", "wheelchair": null, "railway:ref": "SHN", "public_transport": "station", "operator": "Long Island Rail Road", "network": "LIRR", "name": "Southampton" }, "geometry": { "type": "Point", "coordinates": [ -72.3898303, 40.894874 ] } },
{ "type": "Feature", "properties": { "full_id": "n3367300710", "osm_id": "3367300710", "osm_type": "node", "railway": "station", "addr:postcode": null, "addr:street": null, "addr:state": "NY", "addr:city": "Baldwin", "website": null, "opening_hours": null, "owner": null, "image": null, "train": "yes", "platforms": null, "operator:wikidata": null, "old_name": null, "wikidata": "Q4850517", "wheelchair": null, "railway:ref": "BWN", "public_transport": "station", "operator": "Long Island Rail Road", "network": "LIRR", "name": "Baldwin" }, "geometry": { "type": "Point", "coordinates": [ -73.6070275, 40.6567283 ] } },
{ "type": "Feature", "properties": { "full_id": "n7091232854", "osm_id": "7091232854", "osm_type": "node", "railway": "station", "addr:postcode": null, "addr:street": null, "addr:state": null, "addr:city": null, "website": null, "opening_hours": null, "owner": null, "image": null, "train": "yes", "platforms": null, "operator:wikidata": "Q125943", "old_name": null, "wikidata": "Q4966501", "wheelchair": null, "railway:ref": "BHN", "public_transport": "station", "operator": "Long Island Rail Road", "network": "LIRR", "name": "Bridgehampton" }, "geometry": { "type": "Point", "coordinates": [ -72.3097232, 40.9392025 ] } },
{ "type": "Feature", "properties": { "full_id": "n7091074132", "osm_id": "7091074132", "osm_type": "node", "railway": "station", "addr:postcode": null, "addr:street": null, "addr:state": null, "addr:city": null, "website": null, "opening_hours": null, "owner": null, "image": null, "train": "yes", "platforms": null, "operator:wikidata": "Q125943", "old_name": null, "wikidata": "Q4874092", "wheelchair": null, "railway:ref": "BSR", "public_transport": "station", "operator": "Long Island Rail Road", "network": "LIRR", "name": "Bay Shore" }, "geometry": { "type": "Point", "coordinates": [ -73.2529575, 40.7249862 ] } },
{ "type": "Feature", "properties": { "full_id": "n7091074131", "osm_id": "7091074131", "osm_type": "node", "railway": "station", "addr:postcode": null, "addr:street": null, "addr:state": null, "addr:city": null, "website": null, "opening_hours": null, "owner": null, "image": null, "train": "yes", "platforms": null, "operator:wikidata": "Q125943", "old_name": null, "wikidata": "Q5599869", "wheelchair": null, "railway:ref": "GRV", "public_transport": "station", "operator": "Long Island Rail Road", "network": "LIRR", "name": "Great River" }, "geometry": { "type": "Point", "coordinates": [ -73.1699927, 40.7404732 ] } },
{ "type": "Feature", "properties": { "full_id": "n7091232848", "osm_id": "7091232848", "osm_type": "node", "railway": "station", "addr:postcode": null, "addr:street": null, "addr:state": null, "addr:city": null, "website": null, "opening_hours": null, "owner": null, "image": null, "train": "yes", "platforms": null, "operator:wikidata": "Q125943", "old_name": null, "wikidata": "Q4044493", "wheelchair": null, "railway:ref": "MTK", "public_transport": "station", "operator": "Long Island Rail Road", "network": "LIRR", "name": "Montauk" }, "geometry": { "type": "Point", "coordinates": [ -71.9543472, 41.0469096 ] } },
{ "type": "Feature", "properties": { "full_id": "n1934626663", "osm_id": "1934626663", "osm_type": "node", "railway": "station", "addr:postcode": null, "addr:street": null, "addr:state": null, "addr:city": null, "website": null, "opening_hours": null, "owner": null, "image": null, "train": "yes", "platforms": null, "operator:wikidata": "Q125943", "old_name": null, "wikidata": "Q4972385", "wheelchair": null, "railway:ref": "BDY", "public_transport": "station", "operator": "Long Island Rail Road", "network": "LIRR", "name": "Broadway" }, "geometry": { "type": "Point", "coordinates": [ -73.8018206, 40.7617198 ] } },
{ "type": "Feature", "properties": { "full_id": "n277671930", "osm_id": "277671930", "osm_type": "node", "railway": "station", "addr:postcode": null, "addr:street": null, "addr:state": null, "addr:city": null, "website": null, "opening_hours": null, "owner": null, "image": null, "train": "yes", "platforms": "2", "operator:wikidata": "Q125943", "old_name": null, "wikidata": "Q4874820", "wheelchair": "yes", "railway:ref": "BSD", "public_transport": "station", "operator": "Long Island Rail Road", "network": "LIRR", "name": "Bayside" }, "geometry": { "type": "Point", "coordinates": [ -73.7718991, 40.7631044 ] } },
{ "type": "Feature", "properties": { "full_id": "n7091074135", "osm_id": "7091074135", "osm_type": "node", "railway": "station", "addr:postcode": null, "addr:street": null, "addr:state": null, "addr:city": null, "website": null, "opening_hours": null, "owner": null, "image": null, "train": "yes", "platforms": null, "operator:wikidata": null, "old_name": null, "wikidata": "Q4838490", "wheelchair": null, "railway:ref": "BTA", "public_transport": "station", "operator": null, "network": "LIRR", "name": "Babylon" }, "geometry": { "type": "Point", "coordinates": [ -73.324259, 40.7006284 ] } },
{ "type": "Feature", "properties": { "full_id": "n1934626662", "osm_id": "1934626662", "osm_type": "node", "railway": "station", "addr:postcode": null, "addr:street": null, "addr:state": null, "addr:city": null, "website": null, "opening_hours": null, "owner": null, "image": null, "train": "yes", "platforms": null, "operator:wikidata": "Q125943", "old_name": null, "wikidata": "Q5599611", "wheelchair": null, "railway:ref": "GNK", "public_transport": "station", "operator": "Long Island Rail Road", "network": "LIRR", "name": "Great Neck" }, "geometry": { "type": "Point", "coordinates": [ -73.7267563, 40.7870327 ] } },
{ "type": "Feature", "properties": { "full_id": "n7092021624", "osm_id": "7092021624", "osm_type": "node", "railway": "station", "addr:postcode": null, "addr:street": null, "addr:state": null, "addr:city": null, "website": null, "opening_hours": null, "owner": null, "image": null, "train": "yes", "platforms": null, "operator:wikidata": "Q125943", "old_name": null, "wikidata": "Q5250804", "wheelchair": null, "railway:ref": "DPK", "public_transport": "station", "operator": "Long Island Rail Road", "network": "LIRR", "name": "Deer Park" }, "geometry": { "type": "Point", "coordinates": [ -73.2931041, 40.7695802 ] } },
{ "type": "Feature", "properties": { "full_id": "n7092021623", "osm_id": "7092021623", "osm_type": "node", "railway": "station", "addr:postcode": null, "addr:street": null, "addr:state": null, "addr:city": null, "website": null, "opening_hours": null, "owner": null, "image": null, "train": "yes", "platforms": null, "operator:wikidata": "Q125943", "old_name": null, "wikidata": "Q4961750", "wheelchair": null, "railway:ref": "BWD", "public_transport": "station", "operator": "Long Island Rail Road", "network": "LIRR", "name": "Brentwood" }, "geometry": { "type": "Point", "coordinates": [ -73.2424884, 40.7810749 ] } },
{ "type": "Feature", "properties": { "full_id": "n7092021628", "osm_id": "7092021628", "osm_type": "node", "railway": "station", "addr:postcode": null, "addr:street": null, "addr:state": null, "addr:city": null, "website": null, "opening_hours": null, "owner": null, "image": null, "train": "yes", "platforms": null, "operator:wikidata": "Q125943", "old_name": null, "wikidata": "Q30922233", "wheelchair": null, "railway:ref": "PLN", "public_transport": "station", "operator": "Long Island Rail Road", "network": "LIRR", "name": "Pinelawn" }, "geometry": { "type": "Point", "coordinates": [ -73.3998917, 40.7452696 ] } },
{ "type": "Feature", "properties": { "full_id": "n7092021627", "osm_id": "7092021627", "osm_type": "node", "railway": "station", "addr:postcode": null, "addr:street": null, "addr:state": null, "addr:city": null, "website": null, "opening_hours": null, "owner": null, "image": null, "train": "yes", "platforms": null, "operator:wikidata": "Q125943", "old_name": null, "wikidata": "Q8039451", "wheelchair": null, "railway:ref": "WYD", "public_transport": "station", "operator": "Long Island Rail Road", "network": "LIRR", "name": "Wyandanch" }, "geometry": { "type": "Point", "coordinates": [ -73.3580416, 40.7547852 ] } },
{ "type": "Feature", "properties": { "full_id": "n7091232863", "osm_id": "7091232863", "osm_type": "node", "railway": "station", "addr:postcode": null, "addr:street": null, "addr:state": null, "addr:city": null, "website": null, "opening_hours": null, "owner": null, "image": null, "train": "yes", "platforms": null, "operator:wikidata": "Q125943", "old_name": null, "wikidata": "Q7988865", "wheelchair": null, "railway:ref": "WHN", "public_transport": "station", "operator": "Long Island Rail Road", "network": "LIRR", "name": "Westhampton" }, "geometry": { "type": "Point", "coordinates": [ -72.6509697, 40.8302458 ] } },
{ "type": "Feature", "properties": { "full_id": "n7091232860", "osm_id": "7091232860", "osm_type": "node", "railway": "station", "addr:postcode": null, "addr:street": null, "addr:state": null, "addr:city": null, "website": null, "opening_hours": null, "owner": null, "image": null, "train": "yes", "platforms": null, "operator:wikidata": "Q125943", "old_name": null, "wikidata": "Q5646158", "wheelchair": null, "railway:ref": "HBY", "public_transport": "station", "operator": "Long Island Rail Road", "network": "LIRR", "name": "Hampton Bays" }, "geometry": { "type": "Point", "coordinates": [ -72.5243875, 40.8764966 ] } },
{ "type": "Feature", "properties": { "full_id": "n5680173985", "osm_id": "5680173985", "osm_type": "node", "railway": "station", "addr:postcode": null, "addr:street": null, "addr:state": null, "addr:city": null, "website": null, "opening_hours": null, "owner": null, "image": null, "train": "yes", "platforms": null, "operator:wikidata": "Q125943", "old_name": null, "wikidata": "Q7200995", "wheelchair": null, "railway:ref": "PDM", "public_transport": "station", "operator": "Long Island Rail Road", "network": "LIRR", "name": "Plandome" }, "geometry": { "type": "Point", "coordinates": [ -73.6952494, 40.8100605 ] } },
{ "type": "Feature", "properties": { "full_id": "n7092021622", "osm_id": "7092021622", "osm_type": "node", "railway": "station", "addr:postcode": null, "addr:street": null, "addr:state": null, "addr:city": null, "website": null, "opening_hours": null, "owner": null, "image": null, "train": "yes", "platforms": null, "operator:wikidata": "Q125943", "old_name": null, "wikidata": "Q5061282", "wheelchair": null, "railway:ref": "CI", "public_transport": "station", "operator": "Long Island Rail Road", "network": "LIRR", "name": "Central Islip" }, "geometry": { "type": "Point", "coordinates": [ -73.1937143, 40.7920683 ] } },
{ "type": "Feature", "properties": { "full_id": "n5914347259", "osm_id": "5914347259", "osm_type": "node", "railway": "station", "addr:postcode": null, "addr:street": null, "addr:state": null, "addr:city": null, "website": null, "opening_hours": null, "owner": null, "image": null, "train": "yes", "platforms": null, "operator:wikidata": null, "old_name": null, "wikidata": "Q5434603", "wheelchair": "yes", "railway:ref": "FRY", "public_transport": "station", "operator": null, "network": "LIRR", "name": "Far Rockaway" }, "geometry": { "type": "Point", "coordinates": [ -73.7506461, 40.609039 ] } },
{ "type": "Feature", "properties": { "full_id": "n7092021609", "osm_id": "7092021609", "osm_type": "node", "railway": "station", "addr:postcode": null, "addr:street": null, "addr:state": null, "addr:city": null, "website": null, "opening_hours": null, "owner": null, "image": null, "train": "yes", "platforms": null, "operator:wikidata": "Q125943", "old_name": null, "wikidata": "Q7365733", "wheelchair": null, "railway:ref": "RON", "public_transport": "station", "operator": "Long Island Rail Road", "network": "LIRR", "name": "Ronkonkoma" }, "geometry": { "type": "Point", "coordinates": [ -73.105999, 40.8080802 ] } },
{ "type": "Feature", "properties": { "full_id": "n5914347258", "osm_id": "5914347258", "osm_type": "node", "railway": "station", "addr:postcode": null, "addr:street": null, "addr:state": null, "addr:city": null, "website": null, "opening_hours": null, "owner": null, "image": null, "train": "yes", "platforms": null, "operator:wikidata": null, "old_name": null, "wikidata": "Q5056975", "wheelchair": null, "railway:ref": "CHT", "public_transport": "station", "operator": null, "network": "LIRR", "name": "Cedarhurst" }, "geometry": { "type": "Point", "coordinates": [ -73.7259604, 40.6223138 ] } },
{ "type": "Feature", "properties": { "full_id": "n7092032553", "osm_id": "7092032553", "osm_type": "node", "railway": "station", "addr:postcode": null, "addr:street": null, "addr:state": null, "addr:city": null, "website": null, "opening_hours": null, "owner": null, "image": null, "train": "yes", "platforms": null, "operator:wikidata": "Q125943", "old_name": null, "wikidata": "Q12061581", "wheelchair": null, "railway:ref": "MFD", "public_transport": "station", "operator": "Long Island Rail Road", "network": "LIRR", "name": "Medford" }, "geometry": { "type": "Point", "coordinates": [ -72.999191, 40.817355 ] } },
{ "type": "Feature", "properties": { "full_id": "n7092032551", "osm_id": "7092032551", "osm_type": "node", "railway": "station", "addr:postcode": null, "addr:street": null, "addr:state": null, "addr:city": null, "website": null, "opening_hours": null, "owner": null, "image": null, "train": "yes", "platforms": null, "operator:wikidata": "Q125943", "old_name": null, "wikidata": "Q8049113", "wheelchair": null, "railway:ref": "YPK", "public_transport": "station", "operator": "Long Island Rail Road", "network": "LIRR", "name": "Yaphank" }, "geometry": { "type": "Point", "coordinates": [ -72.915864, 40.8256231 ] } },
{ "type": "Feature", "properties": { "full_id": "n7092230404", "osm_id": "7092230404", "osm_type": "node", "railway": "station", "addr:postcode": null, "addr:street": null, "addr:state": null, "addr:city": null, "website": null, "opening_hours": null, "owner": null, "image": null, "train": "yes", "platforms": null, "operator:wikidata": "Q125943", "old_name": null, "wikidata": "Q5604259", "wheelchair": null, "railway:ref": "GWN", "public_transport": "station", "operator": "Long Island Rail Road", "network": "LIRR", "name": "Greenlawn" }, "geometry": { "type": "Point", "coordinates": [ -73.3627201, 40.8686986 ] } },
{ "type": "Feature", "properties": { "full_id": "n7092230395", "osm_id": "7092230395", "osm_type": "node", "railway": "station", "addr:postcode": null, "addr:street": null, "addr:state": null, "addr:city": null, "website": null, "opening_hours": null, "owner": null, "image": null, "train": "yes", "platforms": null, "operator:wikidata": "Q125943", "old_name": null, "wikidata": "Q7230719", "wheelchair": null, "railway:ref": "PJN", "public_transport": "station", "operator": "Long Island Rail Road", "network": "LIRR", "name": "Port Jefferson" }, "geometry": { "type": "Point", "coordinates": [ -73.0536564, 40.9345776 ] } },
{ "type": "Feature", "properties": { "full_id": "n631168861", "osm_id": "631168861", "osm_type": "node", "railway": "station", "addr:postcode": null, "addr:street": null, "addr:state": null, "addr:city": null, "website": null, "opening_hours": null, "owner": null, "image": null, "train": "yes", "platforms": null, "operator:wikidata": null, "old_name": null, "wikidata": "Q6552386", "wheelchair": null, "railway:ref": "LHT", "public_transport": "station", "operator": null, "network": "LIRR", "name": "Lindenhurst" }, "geometry": { "type": "Point", "coordinates": [ -73.3693393, 40.6882115 ] } },
{ "type": "Feature", "properties": { "full_id": "n5634039067", "osm_id": "5634039067", "osm_type": "node", "railway": "station", "addr:postcode": null, "addr:street": null, "addr:state": null, "addr:city": null, "website": null, "opening_hours": null, "owner": null, "image": null, "train": "yes", "platforms": null, "operator:wikidata": "Q125943", "old_name": null, "wikidata": "Q5041138", "wheelchair": null, "railway:ref": "CPL", "public_transport": "station", "operator": "Long Island Rail Road", "network": "LIRR", "name": "Carle Place" }, "geometry": { "type": "Point", "coordinates": [ -73.6037513, 40.7492729 ] } },
{ "type": "Feature", "properties": { "full_id": "n7092032544", "osm_id": "7092032544", "osm_type": "node", "railway": "station", "addr:postcode": null, "addr:street": null, "addr:state": null, "addr:city": null, "website": null, "opening_hours": null, "owner": null, "image": null, "train": "yes", "platforms": null, "operator:wikidata": "Q125943", "old_name": null, "wikidata": "Q14707316", "wheelchair": null, "railway:ref": "SHD", "public_transport": "station", "operator": "Long Island Rail Road", "network": "LIRR", "name": "Southold" }, "geometry": { "type": "Point", "coordinates": [ -72.4278554, 41.0662987 ] } },
{ "type": "Feature", "properties": { "full_id": "n631115792", "osm_id": "631115792", "osm_type": "node", "railway": "station", "addr:postcode": null, "addr:street": null, "addr:state": null, "addr:city": null, "website": null, "opening_hours": null, "owner": null, "image": null, "train": "yes", "platforms": null, "operator:wikidata": null, "old_name": null, "wikidata": "Q6784534", "wheelchair": null, "railway:ref": "MPK", "public_transport": "station", "operator": null, "network": "LIRR", "name": "Massapequa Park" }, "geometry": { "type": "Point", "coordinates": [ -73.4544971, 40.6778728 ] } },
{ "type": "Feature", "properties": { "full_id": "n7092032543", "osm_id": "7092032543", "osm_type": "node", "railway": "station", "addr:postcode": null, "addr:street": null, "addr:state": null, "addr:city": null, "website": null, "opening_hours": null, "owner": null, "image": null, "train": "yes", "platforms": null, "operator:wikidata": "Q125943", "old_name": null, "wikidata": "Q5604401", "wheelchair": null, "railway:ref": "GPT", "public_transport": "station", "operator": "Long Island Rail Road", "network": "LIRR", "name": "Greenport" }, "geometry": { "type": "Point", "coordinates": [ -72.3631293, 41.0997171 ] } },
{ "type": "Feature", "properties": { "full_id": "n638660482", "osm_id": "638660482", "osm_type": "node", "railway": "station", "addr:postcode": null, "addr:street": null, "addr:state": null, "addr:city": null, "website": null, "opening_hours": null, "owner": null, "image": "https://upload.wikimedia.org/wikipedia/commons/3/30/The_Rosedale_Long_Island_Rail_Road_station.jpg", "train": "yes", "platforms": null, "operator:wikidata": null, "old_name": null, "wikidata": "Q7368158", "wheelchair": "yes", "railway:ref": "ROS", "public_transport": "station", "operator": "Long Island Rail Road", "network": "LIRR", "name": "Rosedale" }, "geometry": { "type": "Point", "coordinates": [ -73.7357903, 40.6658936 ] } },
{ "type": "Feature", "properties": { "full_id": "n7092032548", "osm_id": "7092032548", "osm_type": "node", "railway": "station", "addr:postcode": null, "addr:street": null, "addr:state": null, "addr:city": null, "website": null, "opening_hours": null, "owner": null, "image": null, "train": "yes", "platforms": null, "operator:wikidata": "Q125943", "old_name": null, "wikidata": "Q7338212", "wheelchair": null, "railway:ref": "RHD", "public_transport": "station", "operator": "Long Island Rail Road", "network": "LIRR", "name": "Riverhead" }, "geometry": { "type": "Point", "coordinates": [ -72.6669062, 40.9197938 ] } },
{ "type": "Feature", "properties": { "full_id": "n638167088", "osm_id": "638167088", "osm_type": "node", "railway": "station", "addr:postcode": null, "addr:street": null, "addr:state": null, "addr:city": null, "website": null, "opening_hours": null, "owner": null, "image": "https://upload.wikimedia.org/wikipedia/commons/7/74/Valley_Stream_LIRR_jeh.JPG", "train": "yes", "platforms": null, "operator:wikidata": null, "old_name": null, "wikidata": "Q7912212", "wheelchair": null, "railway:ref": "VSM", "public_transport": "station", "operator": "Long Island Rail Road", "network": "LIRR", "name": "Valley Stream" }, "geometry": { "type": "Point", "coordinates": [ -73.7045922, 40.6614765 ] } },
{ "type": "Feature", "properties": { "full_id": "n7092032546", "osm_id": "7092032546", "osm_type": "node", "railway": "station", "addr:postcode": null, "addr:street": null, "addr:state": null, "addr:city": null, "website": null, "opening_hours": null, "owner": null, "image": null, "train": "yes", "platforms": null, "operator:wikidata": "Q125943", "old_name": null, "wikidata": "Q6791845", "wheelchair": null, "railway:ref": "MAK", "public_transport": "station", "operator": "Long Island Rail Road", "network": "LIRR", "name": "Mattituck" }, "geometry": { "type": "Point", "coordinates": [ -72.5360322, 40.9917627 ] } },
{ "type": "Feature", "properties": { "full_id": "n7092423526", "osm_id": "7092423526", "osm_type": "node", "railway": "station", "addr:postcode": null, "addr:street": null, "addr:state": null, "addr:city": null, "website": null, "opening_hours": null, "owner": null, "image": null, "train": "yes", "platforms": null, "operator:wikidata": "Q125943", "old_name": null, "wikidata": "Q6666150", "wheelchair": null, "railway:ref": "LVL", "public_transport": "station", "operator": "Long Island Rail Road", "network": "LIRR", "name": "Locust Valley" }, "geometry": { "type": "Point", "coordinates": [ -73.5983778, 40.8745258 ] } },
{ "type": "Feature", "properties": { "full_id": "n7092423523", "osm_id": "7092423523", "osm_type": "node", "railway": "station", "addr:postcode": null, "addr:street": null, "addr:state": null, "addr:city": null, "website": null, "opening_hours": null, "owner": null, "image": null, "train": "yes", "platforms": null, "operator:wikidata": "Q125943", "old_name": null, "wikidata": "Q7116311", "wheelchair": null, "railway:ref": "OBY", "public_transport": "station", "operator": "Long Island Rail Road", "network": "LIRR", "name": "Oyster Bay" }, "geometry": { "type": "Point", "coordinates": [ -73.5340331, 40.8753084 ] } },
{ "type": "Feature", "properties": { "full_id": "n631115556", "osm_id": "631115556", "osm_type": "node", "railway": "station", "addr:postcode": null, "addr:street": null, "addr:state": null, "addr:city": null, "website": null, "opening_hours": null, "owner": null, "image": null, "train": "yes", "platforms": null, "operator:wikidata": null, "old_name": null, "wikidata": "Q6784532", "wheelchair": "yes", "railway:ref": "MQA", "public_transport": "station", "operator": null, "network": "LIRR", "name": "Massapequa" }, "geometry": { "type": "Point", "coordinates": [ -73.4683362, 40.6769583 ] } },
{ "type": "Feature", "properties": { "full_id": "n7092423528", "osm_id": "7092423528", "osm_type": "node", "railway": "station", "addr:postcode": null, "addr:street": null, "addr:state": null, "addr:city": null, "website": null, "opening_hours": null, "owner": null, "image": null, "train": "yes", "platforms": null, "operator:wikidata": "Q125943", "old_name": null, "wikidata": "Q5568056", "wheelchair": null, "railway:ref": "GST", "public_transport": "station", "operator": "Long Island Rail Road", "network": "LIRR", "name": "Glen Street" }, "geometry": { "type": "Point", "coordinates": [ -73.6207788, 40.858315 ] } },
{ "type": "Feature", "properties": { "full_id": "n631068314", "osm_id": "631068314", "osm_type": "node", "railway": "station", "addr:postcode": null, "addr:street": null, "addr:state": null, "addr:city": null, "website": null, "opening_hours": null, "owner": null, "image": null, "train": "yes", "platforms": null, "operator:wikidata": null, "old_name": null, "wikidata": "Q7440370", "wheelchair": null, "railway:ref": "SFD", "public_transport": "station", "operator": null, "network": "LIRR", "name": "Seaford" }, "geometry": { "type": "Point", "coordinates": [ -73.4867376, 40.6757173 ] } },
{ "type": "Feature", "properties": { "full_id": "n7092423527", "osm_id": "7092423527", "osm_type": "node", "railway": "station", "addr:postcode": null, "addr:street": null, "addr:state": null, "addr:city": null, "website": null, "opening_hours": null, "owner": null, "image": null, "train": "yes", "platforms": null, "operator:wikidata": "Q125943", "old_name": null, "wikidata": "Q5567663", "wheelchair": "yes", "railway:ref": "GCV", "public_transport": "station", "operator": "Long Island Rail Road", "network": "LIRR", "name": "Glen Cove" }, "geometry": { "type": "Point", "coordinates": [ -73.6164614, 40.8657581 ] } },
{ "type": "Feature", "properties": { "full_id": "n7092416446", "osm_id": "7092416446", "osm_type": "node", "railway": "station", "addr:postcode": null, "addr:street": null, "addr:state": null, "addr:city": null, "website": null, "opening_hours": null, "owner": null, "image": null, "train": "yes", "platforms": null, "operator:wikidata": "Q125943", "old_name": null, "wikidata": "Q6479224", "wheelchair": null, "railway:ref": "LVW", "public_transport": "station", "operator": "Long Island Rail Road", "network": "LIRR", "name": "Lakeview" }, "geometry": { "type": "Point", "coordinates": [ -73.6521785, 40.6858285 ] } },
{ "type": "Feature", "properties": { "full_id": "n324330986", "osm_id": "324330986", "osm_type": "node", "railway": "station", "addr:postcode": null, "addr:street": null, "addr:state": null, "addr:city": null, "website": null, "opening_hours": null, "owner": null, "image": null, "train": "yes", "platforms": null, "operator:wikidata": "Q125943", "old_name": null, "wikidata": "Q5468950", "wheelchair": "yes", "railway:ref": "FHL", "public_transport": "station", "operator": "Long Island Rail Road", "network": "LIRR", "name": "Forest Hills" }, "geometry": { "type": "Point", "coordinates": [ -73.8448553, 40.7195942 ] } },
{ "type": "Feature", "properties": { "full_id": "n7092416445", "osm_id": "7092416445", "osm_type": "node", "railway": "station", "addr:postcode": null, "addr:street": null, "addr:state": null, "addr:city": null, "website": null, "opening_hours": null, "owner": null, "image": null, "train": "yes", "platforms": null, "operator:wikidata": "Q125943", "old_name": null, "wikidata": "Q7985341", "wheelchair": "yes", "railway:ref": "WHD", "public_transport": "station", "operator": "Long Island Rail Road", "network": "LIRR", "name": "West Hempstead" }, "geometry": { "type": "Point", "coordinates": [ -73.6412153, 40.7026206 ] } },
{ "type": "Feature", "properties": { "full_id": "n7092416450", "osm_id": "7092416450", "osm_type": "node", "railway": "station", "addr:postcode": null, "addr:street": null, "addr:state": null, "addr:city": null, "website": null, "opening_hours": null, "owner": null, "image": null, "train": "yes", "platforms": null, "operator:wikidata": null, "old_name": null, "wikidata": "Q14707768", "wheelchair": null, "railway:ref": "WWD", "public_transport": "station", "operator": "Long Island Rail Road", "network": "LIRR", "name": "Westwood" }, "geometry": { "type": "Point", "coordinates": [ -73.6814457, 40.6682433 ] } },
{ "type": "Feature", "properties": { "full_id": "n324360750", "osm_id": "324360750", "osm_type": "node", "railway": "station", "addr:postcode": null, "addr:street": null, "addr:state": null, "addr:city": null, "website": null, "opening_hours": null, "owner": null, "image": null, "train": "yes", "platforms": null, "operator:wikidata": null, "old_name": null, "wikidata": "Q5460475", "wheelchair": null, "railway:ref": "FPK", "public_transport": "station", "operator": "Long Island Rail Road", "network": "LIRR", "name": "Floral Park" }, "geometry": { "type": "Point", "coordinates": [ -73.7062596, 40.7246435 ] } },
{ "type": "Feature", "properties": { "full_id": "n7092416447", "osm_id": "7092416447", "osm_type": "node", "railway": "station", "addr:postcode": null, "addr:street": null, "addr:state": null, "addr:city": null, "website": null, "opening_hours": null, "owner": null, "image": null, "train": "yes", "platforms": null, "operator:wikidata": null, "old_name": null, "wikidata": "Q14706880", "wheelchair": null, "railway:ref": "MVN", "public_transport": "station", "operator": "Long Island Rail Road", "network": "LIRR", "name": "Malverne" }, "geometry": { "type": "Point", "coordinates": [ -73.6691317, 40.6753106 ] } },
{ "type": "Feature", "properties": { "full_id": "n324334016", "osm_id": "324334016", "osm_type": "node", "railway": "station", "addr:postcode": null, "addr:street": null, "addr:state": null, "addr:city": null, "website": null, "opening_hours": null, "owner": null, "image": null, "train": "yes", "platforms": null, "operator:wikidata": null, "old_name": null, "wikidata": "Q14706386", "wheelchair": null, "railway:ref": "HOL", "public_transport": "station", "operator": "Long Island Rail Road", "network": "LIRR", "name": "Hollis" }, "geometry": { "type": "Point", "coordinates": [ -73.7666684, 40.7101715 ] } },
{ "type": "Feature", "properties": { "full_id": "n683363158", "osm_id": "683363158", "osm_type": "node", "railway": "station", "addr:postcode": null, "addr:street": null, "addr:state": null, "addr:city": null, "website": null, "opening_hours": null, "owner": null, "image": null, "train": "yes", "platforms": null, "operator:wikidata": "Q125943", "old_name": null, "wikidata": "Q7619489", "wheelchair": null, "railway:ref": "BK", "public_transport": "station", "operator": "Long Island Rail Road", "network": "LIRR", "name": "Stony Brook" }, "geometry": { "type": "Point", "coordinates": [ -73.1279744, 40.9215391 ] } },
{ "type": "Feature", "properties": { "full_id": "n7093714810", "osm_id": "7093714810", "osm_type": "node", "railway": "station", "addr:postcode": null, "addr:street": null, "addr:state": null, "addr:city": null, "website": null, "opening_hours": null, "owner": null, "image": null, "train": "yes", "platforms": null, "operator:wikidata": null, "old_name": null, "wikidata": "Q6672264", "wheelchair": null, "railway:ref": "LBH", "public_transport": "station", "operator": "Long Island Rail Road", "network": "LIRR", "name": "Long Beach" }, "geometry": { "type": "Point", "coordinates": [ -73.6648081, 40.5891999 ] } },
{ "type": "Feature", "properties": { "full_id": "n7092423541", "osm_id": "7092423541", "osm_type": "node", "railway": "station", "addr:postcode": null, "addr:street": null, "addr:state": null, "addr:city": null, "website": null, "opening_hours": null, "owner": null, "image": null, "train": "yes", "platforms": null, "operator:wikidata": "Q125943", "old_name": null, "wikidata": "Q7615870", "wheelchair": null, "railway:ref": "SMR", "public_transport": "station", "operator": "Long Island Rail Road", "network": "LIRR", "name": "Stewart Manor" }, "geometry": { "type": "Point", "coordinates": [ -73.6810241, 40.7230197 ] } },
{ "type": "Feature", "properties": { "full_id": "n7093714842", "osm_id": "7093714842", "osm_type": "node", "railway": "station", "addr:postcode": null, "addr:street": null, "addr:state": null, "addr:city": null, "website": null, "opening_hours": null, "owner": null, "image": null, "train": "yes", "platforms": null, "operator:wikidata": null, "old_name": null, "wikidata": "Q6503768", "wheelchair": null, "railway:ref": "LCE", "public_transport": "station", "operator": "Long Island Rail Road", "network": "LIRR", "name": "Lawrence" }, "geometry": { "type": "Point", "coordinates": [ -73.7369218, 40.6151476 ] } },
{ "type": "Feature", "properties": { "full_id": "n7093714841", "osm_id": "7093714841", "osm_type": "node", "railway": "station", "addr:postcode": null, "addr:street": null, "addr:state": null, "addr:city": null, "website": null, "opening_hours": null, "owner": null, "image": null, "train": "yes", "platforms": null, "operator:wikidata": null, "old_name": null, "wikidata": "Q6061492", "wheelchair": null, "railway:ref": "IWD", "public_transport": "station", "operator": "Long Island Rail Road", "network": "LIRR", "name": "Inwood" }, "geometry": { "type": "Point", "coordinates": [ -73.7444106, 40.6122054 ] } },
{ "type": "Feature", "properties": { "full_id": "n7092423530", "osm_id": "7092423530", "osm_type": "node", "railway": "station", "addr:postcode": null, "addr:street": null, "addr:state": null, "addr:city": null, "website": null, "opening_hours": null, "owner": null, "image": null, "train": "yes", "platforms": null, "operator:wikidata": "Q125943", "old_name": null, "wikidata": "Q7367102", "wheelchair": null, "railway:ref": "HEM", "public_transport": "station", "operator": "Long Island Rail Road", "network": "LIRR", "name": "Hempstead" }, "geometry": { "type": "Point", "coordinates": [ -73.6248498, 40.712186 ] } },
{ "type": "Feature", "properties": { "full_id": "n7092423529", "osm_id": "7092423529", "osm_type": "node", "railway": "station", "addr:postcode": null, "addr:street": null, "addr:state": null, "addr:city": null, "website": null, "opening_hours": null, "owner": null, "image": null, "train": "yes", "platforms": null, "operator:wikidata": "Q125943", "old_name": null, "wikidata": "Q7369043", "wheelchair": null, "railway:ref": "RSN", "public_transport": "station", "operator": "Long Island Rail Road", "network": "LIRR", "name": "Roslyn" }, "geometry": { "type": "Point", "coordinates": [ -73.6432504, 40.7907896 ] } },
{ "type": "Feature", "properties": { "full_id": "n3916647701", "osm_id": "3916647701", "osm_type": "node", "railway": "station", "addr:postcode": null, "addr:street": null, "addr:state": null, "addr:city": null, "website": null, "opening_hours": null, "owner": null, "image": null, "train": "yes", "platforms": null, "operator:wikidata": "Q125943", "old_name": null, "wikidata": "Q7439860", "wheelchair": null, "railway:ref": "SCF", "public_transport": "station", "operator": "Long Island Rail Road", "network": "LIRR", "name": "Sea Cliff" }, "geometry": { "type": "Point", "coordinates": [ -73.6256013, 40.8521259 ] } },
{ "type": "Feature", "properties": { "full_id": "n7092423540", "osm_id": "7092423540", "osm_type": "node", "railway": "station", "addr:postcode": null, "addr:street": null, "addr:state": null, "addr:city": null, "website": null, "opening_hours": null, "owner": null, "image": null, "train": "yes", "platforms": null, "operator:wikidata": null, "old_name": null, "wikidata": "Q14707045", "wheelchair": null, "railway:ref": "NBD", "public_transport": "station", "operator": "Long Island Rail Road", "network": "LIRR", "name": "Nassau Boulevard" }, "geometry": { "type": "Point", "coordinates": [ -73.6627939, 40.7229536 ] } },
{ "type": "Feature", "properties": { "full_id": "n7092423537", "osm_id": "7092423537", "osm_type": "node", "railway": "station", "addr:postcode": null, "addr:street": null, "addr:state": null, "addr:city": null, "website": null, "opening_hours": null, "owner": null, "image": null, "train": "yes", "platforms": null, "operator:wikidata": "Q125943", "old_name": null, "wikidata": "Q5522200", "wheelchair": null, "railway:ref": "GCY", "public_transport": "station", "operator": "Long Island Rail Road", "network": "LIRR", "name": "Garden City" }, "geometry": { "type": "Point", "coordinates": [ -73.6402389, 40.7231222 ] } },
{ "type": "Feature", "properties": { "full_id": "n895371274", "osm_id": "895371274", "osm_type": "node", "railway": "station", "addr:postcode": "10001", "addr:street": "West 31st Street", "addr:state": "NY", "addr:city": "New York", "website": null, "opening_hours": null, "owner": null, "image": null, "train": "yes", "platforms": null, "operator:wikidata": null, "old_name": null, "wikidata": "Q54451", "wheelchair": "yes", "railway:ref": "NYP", "public_transport": "station", "operator": null, "network": "Amtrak;NJ Transit;LIRR", "name": "New York Penn Station" }, "geometry": { "type": "Point", "coordinates": [ -73.9928111, 40.7502382 ] } },
{ "type": "Feature", "properties": { "full_id": "n7093714856", "osm_id": "7093714856", "osm_type": "node", "railway": "station", "addr:postcode": null, "addr:street": null, "addr:state": null, "addr:city": null, "website": null, "opening_hours": null, "owner": null, "image": null, "train": "yes", "platforms": null, "operator:wikidata": null, "old_name": null, "wikidata": "Q5559278", "wheelchair": null, "railway:ref": "GBN", "public_transport": "station", "operator": "Long Island Rail Road", "network": "LIRR", "name": "Gibson" }, "geometry": { "type": "Point", "coordinates": [ -73.7018365, 40.6492516 ] } },
{ "type": "Feature", "properties": { "full_id": "n7004561898", "osm_id": "7004561898", "osm_type": "node", "railway": "station", "addr:postcode": null, "addr:street": null, "addr:state": null, "addr:city": null, "website": null, "opening_hours": null, "owner": null, "image": null, "train": "yes", "platforms": null, "operator:wikidata": "Q125943", "old_name": null, "wikidata": "Q7059620", "wheelchair": "limited", "railway:ref": "NPT", "public_transport": "station", "operator": "Long Island Rail Road", "network": "LIRR", "name": "Northport" }, "geometry": { "type": "Point", "coordinates": [ -73.3268249, 40.8808225 ] } },
{ "type": "Feature", "properties": { "full_id": "n7093714854", "osm_id": "7093714854", "osm_type": "node", "railway": "station", "addr:postcode": null, "addr:street": null, "addr:state": null, "addr:city": null, "website": null, "opening_hours": null, "owner": null, "image": null, "train": "yes", "platforms": null, "operator:wikidata": null, "old_name": null, "wikidata": "Q8033108", "wheelchair": null, "railway:ref": "WMR", "public_transport": "station", "operator": null, "network": "LIRR", "name": "Woodmere" }, "geometry": { "type": "Point", "coordinates": [ -73.7133366, 40.631627 ] } },
{ "type": "Feature", "properties": { "full_id": "n7004561897", "osm_id": "7004561897", "osm_type": "node", "railway": "station", "addr:postcode": null, "addr:street": null, "addr:state": null, "addr:city": null, "website": null, "opening_hours": null, "owner": null, "image": null, "train": "yes", "platforms": null, "operator:wikidata": "Q125943", "old_name": null, "wikidata": "Q7545647", "wheelchair": null, "railway:ref": "STN", "public_transport": "station", "operator": "Long Island Rail Road", "network": "LIRR", "name": "Smithtown" }, "geometry": { "type": "Point", "coordinates": [ -73.1990845, 40.856155 ] } },
{ "type": "Feature", "properties": { "full_id": "n7004561900", "osm_id": "7004561900", "osm_type": "node", "railway": "station", "addr:postcode": null, "addr:street": null, "addr:state": null, "addr:city": null, "website": null, "opening_hours": null, "owner": null, "image": null, "train": "yes", "platforms": null, "operator:wikidata": null, "old_name": null, "wikidata": "Q5142354", "wheelchair": null, "railway:ref": "CSH", "public_transport": "station", "operator": null, "network": "LIRR", "name": "Cold Spring Harbor" }, "geometry": { "type": "Point", "coordinates": [ -73.4516065, 40.8351419 ] } },
{ "type": "Feature", "properties": { "full_id": "n7004561899", "osm_id": "7004561899", "osm_type": "node", "railway": "station", "addr:postcode": null, "addr:street": null, "addr:state": null, "addr:city": null, "website": null, "opening_hours": null, "owner": null, "image": null, "train": "yes", "platforms": null, "operator:wikidata": null, "old_name": null, "wikidata": "Q5945230", "wheelchair": null, "railway:ref": "HUN", "public_transport": "station", "operator": null, "network": "LIRR", "name": "Huntington" }, "geometry": { "type": "Point", "coordinates": [ -73.4109376, 40.8526863 ] } },
{ "type": "Feature", "properties": { "full_id": "n7004561896", "osm_id": "7004561896", "osm_type": "node", "railway": "station", "addr:postcode": null, "addr:street": null, "addr:state": null, "addr:city": null, "website": null, "opening_hours": null, "owner": null, "image": null, "train": "yes", "platforms": null, "operator:wikidata": "Q125943", "old_name": null, "wikidata": "Q7588420", "wheelchair": null, "railway:ref": "SJM", "public_transport": "station", "operator": "Long Island Rail Road", "network": "LIRR", "name": "Saint James" }, "geometry": { "type": "Point", "coordinates": [ -73.1581406, 40.8832717 ] } },
{ "type": "Feature", "properties": { "full_id": "n7004561906", "osm_id": "7004561906", "osm_type": "node", "railway": "station", "addr:postcode": null, "addr:street": null, "addr:state": null, "addr:city": null, "website": null, "opening_hours": null, "owner": null, "image": null, "train": "yes", "platforms": null, "operator:wikidata": null, "old_name": null, "wikidata": "Q7355632", "wheelchair": null, "railway:ref": "RVC", "public_transport": "station", "operator": null, "network": "LIRR", "name": "Rockville Centre" }, "geometry": { "type": "Point", "coordinates": [ -73.6468452, 40.6583328 ] } },
{ "type": "Feature", "properties": { "full_id": "n7004561905", "osm_id": "7004561905", "osm_type": "node", "railway": "station", "addr:postcode": null, "addr:street": null, "addr:state": null, "addr:city": null, "website": null, "opening_hours": null, "owner": null, "image": null, "train": "yes", "platforms": null, "operator:wikidata": null, "old_name": null, "wikidata": "Q4746987", "wheelchair": null, "railway:ref": "AVL", "public_transport": "station", "operator": null, "network": "LIRR", "name": "Amityville" }, "geometry": { "type": "Point", "coordinates": [ -73.4205231, 40.6802465 ] } },
{ "type": "Feature", "properties": { "full_id": "n7004561908", "osm_id": "7004561908", "osm_type": "node", "railway": "station", "addr:postcode": null, "addr:street": null, "addr:state": null, "addr:city": null, "website": null, "opening_hours": null, "owner": null, "image": null, "train": "yes", "platforms": null, "operator:wikidata": null, "old_name": null, "wikidata": "Q5329685", "wheelchair": null, "railway:ref": "EWN", "public_transport": "station", "operator": null, "network": "LIRR", "name": "East Williston" }, "geometry": { "type": "Point", "coordinates": [ -73.6394115, 40.7561216 ] } },
{ "type": "Feature", "properties": { "full_id": "n7004561907", "osm_id": "7004561907", "osm_type": "node", "railway": "station", "addr:postcode": null, "addr:street": null, "addr:state": null, "addr:city": null, "website": null, "opening_hours": null, "owner": null, "image": null, "train": "yes", "platforms": null, "operator:wikidata": null, "old_name": null, "wikidata": "Q5712718", "wheelchair": null, "railway:ref": "HGN", "public_transport": "station", "operator": "Long Island Rail Road", "network": "LIRR", "name": "Hempstead Gardens" }, "geometry": { "type": "Point", "coordinates": [ -73.6461157, 40.6949777 ] } },
{ "type": "Feature", "properties": { "full_id": "n7004561902", "osm_id": "7004561902", "osm_type": "node", "railway": "station", "addr:postcode": null, "addr:street": null, "addr:state": null, "addr:city": null, "website": null, "opening_hours": null, "owner": null, "image": null, "train": "yes", "platforms": null, "operator:wikidata": null, "old_name": null, "wikidata": "Q6820074", "wheelchair": null, "railway:ref": "MRK", "public_transport": "station", "operator": null, "network": "LIRR", "name": "Merrick" }, "geometry": { "type": "Point", "coordinates": [ -73.550503, 40.6638183 ] } },
{ "type": "Feature", "properties": { "full_id": "n7004561901", "osm_id": "7004561901", "osm_type": "node", "railway": "station", "addr:postcode": null, "addr:street": null, "addr:state": null, "addr:city": null, "website": null, "opening_hours": null, "owner": null, "image": null, "train": "yes", "platforms": null, "operator:wikidata": null, "old_name": null, "wikidata": "Q5501107", "wheelchair": null, "railway:ref": "FPT", "public_transport": "station", "operator": null, "network": "LIRR", "name": "Freeport" }, "geometry": { "type": "Point", "coordinates": [ -73.5822942, 40.6574527 ] } },
{ "type": "Feature", "properties": { "full_id": "n7004561904", "osm_id": "7004561904", "osm_type": "node", "railway": "station", "addr:postcode": "11793", "addr:street": "Railroad Avenue", "addr:state": "NY", "addr:city": "Wantagh", "website": null, "opening_hours": null, "owner": null, "image": null, "train": "yes", "platforms": null, "operator:wikidata": "Q125943", "old_name": null, "wikidata": "Q7968126", "wheelchair": "yes", "railway:ref": "WGH", "public_transport": "station", "operator": "Long Island Rail Road", "network": "LIRR", "name": "Wantagh" }, "geometry": { "type": "Point", "coordinates": [ -73.5089252, 40.672999 ] } },
{ "type": "Feature", "properties": { "full_id": "n7004561903", "osm_id": "7004561903", "osm_type": "node", "railway": "station", "addr:postcode": null, "addr:street": null, "addr:state": null, "addr:city": null, "website": null, "opening_hours": null, "owner": null, "image": null, "train": "yes", "platforms": null, "operator:wikidata": null, "old_name": null, "wikidata": "Q4884078", "wheelchair": null, "railway:ref": "BMR", "public_transport": "station", "operator": null, "network": "LIRR", "name": "Bellmore" }, "geometry": { "type": "Point", "coordinates": [ -73.5283888, 40.668929 ] } },
{ "type": "Feature", "properties": { "full_id": "n7004561910", "osm_id": "7004561910", "osm_type": "node", "railway": "station", "addr:postcode": null, "addr:street": null, "addr:state": null, "addr:city": null, "website": null, "opening_hours": null, "owner": null, "image": null, "train": "yes", "platforms": null, "operator:wikidata": "Q125943", "old_name": null, "wikidata": "Q5604621", "wheelchair": null, "railway:ref": "GVL", "public_transport": "station", "operator": "Long Island Rail Road", "network": "LIRR", "name": "Greenvale" }, "geometry": { "type": "Point", "coordinates": [ -73.6269033, 40.8157755 ] } },
{ "type": "Feature", "properties": { "full_id": "n7004561909", "osm_id": "7004561909", "osm_type": "node", "railway": "station", "addr:postcode": null, "addr:street": null, "addr:state": null, "addr:city": null, "website": null, "opening_hours": null, "owner": null, "image": null, "train": "yes", "platforms": null, "operator:wikidata": null, "old_name": null, "wikidata": "Q4712278", "wheelchair": "yes", "railway:ref": "ABT", "public_transport": "station", "operator": null, "network": "LIRR", "name": "Albertson" }, "geometry": { "type": "Point", "coordinates": [ -73.6416578, 40.7718471 ] } },
{ "type": "Feature", "properties": { "full_id": "n597828360", "osm_id": "597828360", "osm_type": "node", "railway": "station", "addr:postcode": null, "addr:street": null, "addr:state": null, "addr:city": null, "website": null, "opening_hours": null, "owner": "Metropolitan Transit Authority", "image": "https://upload.wikimedia.org/wikipedia/commons/d/d1/Nostrand_LIRR_Station.jpg", "train": "yes", "platforms": null, "operator:wikidata": null, "old_name": null, "wikidata": "Q7061988", "wheelchair": null, "railway:ref": "NAV", "public_transport": "station", "operator": "Long Island Rail Road", "network": "LIRR", "name": "Nostrand Avenue" }, "geometry": { "type": "Point", "coordinates": [ -73.9481991, 40.6783847 ] } },
{ "type": "Feature", "properties": { "full_id": "n7004561912", "osm_id": "7004561912", "osm_type": "node", "railway": "station", "addr:postcode": null, "addr:street": null, "addr:state": null, "addr:city": null, "website": null, "opening_hours": null, "owner": null, "image": null, "train": "yes", "platforms": null, "operator:wikidata": "Q125943", "old_name": null, "wikidata": "Q6749206", "wheelchair": null, "railway:ref": "MHT", "public_transport": "station", "operator": "Long Island Rail Road", "network": "LIRR", "name": "Manhasset" }, "geometry": { "type": "Point", "coordinates": [ -73.6999261, 40.7965713 ] } },
{ "type": "Feature", "properties": { "full_id": "n597500968", "osm_id": "597500968", "osm_type": "node", "railway": "station", "addr:postcode": null, "addr:street": null, "addr:state": null, "addr:city": null, "website": null, "opening_hours": null, "owner": null, "image": null, "train": "yes", "platforms": null, "operator:wikidata": null, "old_name": null, "wikidata": "Q5944797", "wheelchair": "no", "railway:ref": "HPA", "public_transport": "station", "operator": null, "network": "LIRR", "name": "Hunterspoint Avenue" }, "geometry": { "type": "Point", "coordinates": [ -73.9475584, 40.7420527 ] } },
{ "type": "Feature", "properties": { "full_id": "n7004561911", "osm_id": "7004561911", "osm_type": "node", "railway": "station", "addr:postcode": null, "addr:street": null, "addr:state": null, "addr:city": null, "website": null, "opening_hours": null, "owner": null, "image": null, "train": "yes", "platforms": null, "operator:wikidata": "Q125943", "old_name": null, "wikidata": "Q5567803", "wheelchair": null, "railway:ref": "GHD", "public_transport": "station", "operator": "Long Island Rail Road", "network": "LIRR", "name": "Glen Head" }, "geometry": { "type": "Point", "coordinates": [ -73.6261037, 40.8321762 ] } },
{ "type": "Feature", "properties": { "full_id": "n597828361", "osm_id": "597828361", "osm_type": "node", "railway": "station", "addr:postcode": null, "addr:street": null, "addr:state": null, "addr:city": null, "website": null, "opening_hours": null, "owner": "Metropolitan Transit Authority", "image": "https://upload.wikimedia.org/wikipedia/commons/6/62/Lirrenyplatjeh.jpg", "train": "yes", "platforms": null, "operator:wikidata": null, "old_name": null, "wikidata": "Q5329034", "wheelchair": "yes", "railway:ref": "ENY", "public_transport": "station", "operator": "Long Island Rail Road", "network": "LIRR", "name": "East New York" }, "geometry": { "type": "Point", "coordinates": [ -73.9032829, 40.6758826 ] } },
{ "type": "Feature", "properties": { "full_id": "n4926861689", "osm_id": "4926861689", "osm_type": "node", "railway": "station", "addr:postcode": "11354", "addr:street": null, "addr:state": "NY", "addr:city": "Flushing", "website": null, "opening_hours": null, "owner": null, "image": null, "train": "yes", "platforms": null, "operator:wikidata": "Q125943", "old_name": null, "wikidata": "Q6939296", "wheelchair": null, "railway:ref": "MHL", "public_transport": "station", "operator": "Long Island Rail Road", "network": "LIRR", "name": "Murray Hill" }, "geometry": { "type": "Point", "coordinates": [ -73.8146116, 40.7627097 ] } },
{ "type": "Feature", "properties": { "full_id": "n1331281677", "osm_id": "1331281677", "osm_type": "node", "railway": "station", "addr:postcode": null, "addr:street": null, "addr:state": null, "addr:city": null, "website": null, "opening_hours": null, "owner": "Metropolitan Transit Authority", "image": "https://upload.wikimedia.org/wikipedia/commons/1/1d/East_Rockaway_LIRR_jeh.JPG", "train": "yes", "platforms": null, "operator:wikidata": null, "old_name": null, "wikidata": "Q5329298", "wheelchair": "yes", "railway:ref": "ERY", "public_transport": "station", "operator": "Long Island Rail Road", "network": "LIRR", "name": "East Rockaway" }, "geometry": { "type": "Point", "coordinates": [ -73.6581391, 40.6421404 ] } },
{ "type": "Feature", "properties": { "full_id": "n1325390434", "osm_id": "1325390434", "osm_type": "node", "railway": "station", "addr:postcode": null, "addr:street": null, "addr:state": null, "addr:city": null, "website": null, "opening_hours": null, "owner": "Metropolitan Transit Authority", "image": "https://upload.wikimedia.org/wikipedia/commons/thumb/4/42/Oceanside_LIRR_jeh.JPG/300px-Oceanside_LIRR_jeh.JPG", "train": "yes", "platforms": null, "operator:wikidata": null, "old_name": null, "wikidata": "Q7076241", "wheelchair": null, "railway:ref": "ODE", "public_transport": "station", "operator": "Long Island Rail Road", "network": "LIRR", "name": "Oceanside" }, "geometry": { "type": "Point", "coordinates": [ -73.654704, 40.6348456 ] } }
]
}
