{
"type": "FeatureCollection",
"name": "nj_stations_01",
"crs": { "type": "name", "properties": { "name": "urn:ogc:def:crs:OGC:1.3:CRS84" } },
"features": [
{ "type": "Feature", "properties": { "full_id": "n7681854805", "osm_id": "7681854805", "osm_type": "node", "railway": "station", "type": null, "ref:amtrak": null, "official_name": null, "old_name": null, "alt_name": null, "light_rail": "yes", "website": null, "phone": null, "addr:street": null, "addr:postcode": null, "addr:housenumber": null, "addr:city": null, "railway:position": null, "addr:state": null, "train": null, "station": "light_rail", "short_name": null, "railway:ref": null, "public_transport": "station", "operator": "New Jersey Transit", "network": "Hudson-Bergen Light Rail", "name": "45th Street", "level": null }, "geometry": { "type": "Point", "coordinates": [ -74.101688, 40.6787896 ] } },
{ "type": "Feature", "properties": { "full_id": "n7681854810", "osm_id": "7681854810", "osm_type": "node", "railway": "station", "type": null, "ref:amtrak": null, "official_name": null, "old_name": null, "alt_name": null, "light_rail": "yes", "website": null, "phone": null, "addr:street": null, "addr:postcode": null, "addr:housenumber": null, "addr:city": null, "railway:position": null, "addr:state": null, "train": "yes", "station": "light_rail", "short_name": null, "railway:ref": null, "public_transport": "station", "operator": "New Jersey Transit", "network": "Hudson-Bergen Light Rail", "name": "Lincoln Harbor", "level": null }, "geometry": { "type": "Point", "coordinates": [ -74.0238483, 40.7616462 ] } },
{ "type": "Feature", "properties": { "full_id": "n7681854809", "osm_id": "7681854809", "osm_type": "node", "railway": "station", "type": null, "ref:amtrak": null, "official_name": null, "old_name": null, "alt_name": null, "light_rail": "yes", "website": null, "phone": null, "addr:street": null, "addr:postcode": null, "addr:housenumber": null, "addr:city": null, "railway:position": null, "addr:state": null, "train": null, "station": "light_rail", "short_name": null, "railway:ref": null, "public_transport": "station", "operator": "New Jersey Transit", "network": "Hudson-Bergen Light Rail", "name": "9th Street–Congress Street", "level": null }, "geometry": { "type": "Point", "coordinates": [ -74.0386637, 40.7487251 ] } },
{ "type": "Feature", "properties": { "full_id": "n7703676990", "osm_id": "7703676990", "osm_type": "node", "railway": "station", "type": null, "ref:amtrak": null, "official_name": null, "old_name": null, "alt_name": null, "light_rail": "yes", "website": null, "phone": null, "addr:street": null, "addr:postcode": null, "addr:housenumber": null, "addr:city": null, "railway:position": null, "addr:state": null, "train": "yes", "station": "light_rail", "short_name": null, "railway:ref": null, "public_transport": "station", "operator": "New Jersey Transit", "network": "NJ Transit", "name": "Riverton", "level": null }, "geometry": { "type": "Point", "coordinates": [ -75.0130708, 40.0089366 ] } },
{ "type": "Feature", "properties": { "full_id": "n6615000260", "osm_id": "6615000260", "osm_type": "node", "railway": "station", "type": null, "ref:amtrak": null, "official_name": null, "old_name": null, "alt_name": null, "light_rail": null, "website": null, "phone": null, "addr:street": null, "addr:postcode": null, "addr:housenumber": null, "addr:city": null, "railway:position": "mi:31.4", "addr:state": "NJ", "train": "yes", "station": null, "short_name": null, "railway:ref": "NBK", "public_transport": "station", "operator": "Amtrak", "network": "Amtrak;NJ Transit", "name": "New Brunswick", "level": null }, "geometry": { "type": "Point", "coordinates": [ -74.4461934, 40.4968426 ] } },
{ "type": "Feature", "properties": { "full_id": "n7703676989", "osm_id": "7703676989", "osm_type": "node", "railway": "station", "type": null, "ref:amtrak": null, "official_name": null, "old_name": null, "alt_name": null, "light_rail": "yes", "website": null, "phone": null, "addr:street": null, "addr:postcode": null, "addr:housenumber": null, "addr:city": null, "railway:position": null, "addr:state": null, "train": "yes", "station": "light_rail", "short_name": null, "railway:ref": null, "public_transport": "station", "operator": "New Jersey Transit", "network": "NJ Transit", "name": "Palmyra", "level": null }, "geometry": { "type": "Point", "coordinates": [ -75.0211094, 40.004217 ] } },
{ "type": "Feature", "properties": { "full_id": "n7703676993", "osm_id": "7703676993", "osm_type": "node", "railway": "station", "type": null, "ref:amtrak": null, "official_name": null, "old_name": null, "alt_name": null, "light_rail": "yes", "website": null, "phone": null, "addr:street": null, "addr:postcode": null, "addr:housenumber": null, "addr:city": null, "railway:position": null, "addr:state": null, "train": "yes", "station": "light_rail", "short_name": null, "railway:ref": null, "public_transport": "station", "operator": "New Jersey Transit", "network": "NJ Transit", "name": "Beverly–Edgewater Park", "level": null }, "geometry": { "type": "Point", "coordinates": [ -74.9151622, 40.0611574 ] } },
{ "type": "Feature", "properties": { "full_id": "n7703676992", "osm_id": "7703676992", "osm_type": "node", "railway": "station", "type": null, "ref:amtrak": null, "official_name": null, "old_name": null, "alt_name": null, "light_rail": "yes", "website": null, "phone": null, "addr:street": null, "addr:postcode": null, "addr:housenumber": null, "addr:city": null, "railway:position": null, "addr:state": null, "train": "yes", "station": "light_rail", "short_name": null, "railway:ref": null, "public_transport": "station", "operator": "New Jersey Transit", "network": "NJ Transit", "name": "Cinnaminson", "level": null }, "geometry": { "type": "Point", "coordinates": [ -74.9999754, 40.0166151 ] } },
{ "type": "Feature", "properties": { "full_id": "n4875287262", "osm_id": "4875287262", "osm_type": "node", "railway": "station", "type": null, "ref:amtrak": null, "official_name": null, "old_name": null, "alt_name": null, "light_rail": "yes", "website": null, "phone": null, "addr:street": "East 34th Street", "addr:postcode": "07002", "addr:housenumber": null, "addr:city": "Bayonne", "railway:position": null, "addr:state": "NJ", "train": "yes", "station": "light_rail", "short_name": null, "railway:ref": null, "public_transport": "station", "operator": "New Jersey Transit", "network": "Hudson-Bergen Light Rail", "name": "34th Street", "level": null }, "geometry": { "type": "Point", "coordinates": [ -74.107579, 40.6718115 ] } },
{ "type": "Feature", "properties": { "full_id": "n7682101462", "osm_id": "7682101462", "osm_type": "node", "railway": "station", "type": null, "ref:amtrak": null, "official_name": null, "old_name": null, "alt_name": null, "light_rail": "yes", "website": null, "phone": null, "addr:street": null, "addr:postcode": null, "addr:housenumber": null, "addr:city": null, "railway:position": null, "addr:state": null, "train": "yes", "station": "light_rail", "short_name": null, "railway:ref": null, "public_transport": "station", "operator": "New Jersey Transit Bus Operations", "network": "NJ Transit", "name": "Atlantic Street", "level": null }, "geometry": { "type": "Point", "coordinates": [ -74.1683919, 40.7440277 ] } },
{ "type": "Feature", "properties": { "full_id": "n7682101461", "osm_id": "7682101461", "osm_type": "node", "railway": "station", "type": null, "ref:amtrak": null, "official_name": null, "old_name": null, "alt_name": null, "light_rail": "yes", "website": null, "phone": null, "addr:street": null, "addr:postcode": null, "addr:housenumber": null, "addr:city": null, "railway:position": null, "addr:state": null, "train": "yes", "station": "light_rail", "short_name": null, "railway:ref": null, "public_transport": "station", "operator": "New Jersey Transit Bus Operations", "network": "NJ Transit", "name": "Riverfront Stadium", "level": null }, "geometry": { "type": "Point", "coordinates": [ -74.1692065, 40.7456145 ] } },
{ "type": "Feature", "properties": { "full_id": "n7703676988", "osm_id": "7703676988", "osm_type": "node", "railway": "station", "type": null, "ref:amtrak": null, "official_name": null, "old_name": null, "alt_name": null, "light_rail": "yes", "website": null, "phone": null, "addr:street": null, "addr:postcode": null, "addr:housenumber": null, "addr:city": null, "railway:position": null, "addr:state": null, "train": "yes", "station": "light_rail", "short_name": null, "railway:ref": null, "public_transport": "station", "operator": "New Jersey Transit", "network": "NJ Transit", "name": "Pennsauken–Route 73", "level": null }, "geometry": { "type": "Point", "coordinates": [ -75.0391088, 39.9934255 ] } },
{ "type": "Feature", "properties": { "full_id": "n7682101463", "osm_id": "7682101463", "osm_type": "node", "railway": "station", "type": null, "ref:amtrak": null, "official_name": null, "old_name": null, "alt_name": null, "light_rail": "yes", "website": null, "phone": null, "addr:street": null, "addr:postcode": null, "addr:housenumber": null, "addr:city": null, "railway:position": null, "addr:state": null, "train": "yes", "station": "light_rail", "short_name": null, "railway:ref": null, "public_transport": "station", "operator": "New Jersey Transit Bus Operations", "network": "NJ Transit", "name": "Harriet Tubman Square", "level": null }, "geometry": { "type": "Point", "coordinates": [ -74.1698578, 40.7437868 ] } },
{ "type": "Feature", "properties": { "full_id": "n6633504674", "osm_id": "6633504674", "osm_type": "node", "railway": "station", "type": null, "ref:amtrak": null, "official_name": null, "old_name": null, "alt_name": null, "light_rail": "yes", "website": null, "phone": null, "addr:street": null, "addr:postcode": null, "addr:housenumber": null, "addr:city": null, "railway:position": null, "addr:state": null, "train": "yes", "station": "light_rail", "short_name": null, "railway:ref": null, "public_transport": "station", "operator": "New Jersey Transit", "network": "NJ Transit", "name": "NJPAC/Center Street", "level": null }, "geometry": { "type": "Point", "coordinates": [ -74.1655793, 40.7395408 ] } },
{ "type": "Feature", "properties": { "full_id": "n7703677001", "osm_id": "7703677001", "osm_type": "node", "railway": "station", "type": null, "ref:amtrak": null, "official_name": null, "old_name": null, "alt_name": null, "light_rail": "yes", "website": null, "phone": null, "addr:street": null, "addr:postcode": null, "addr:housenumber": null, "addr:city": null, "railway:position": null, "addr:state": null, "train": "yes", "station": "light_rail", "short_name": null, "railway:ref": null, "public_transport": "station", "operator": "New Jersey Transit", "network": "NJ Transit", "name": "Trenton", "level": null }, "geometry": { "type": "Point", "coordinates": [ -74.7551178, 40.2183766 ] } },
{ "type": "Feature", "properties": { "full_id": "n7703677000", "osm_id": "7703677000", "osm_type": "node", "railway": "station", "type": null, "ref:amtrak": null, "official_name": null, "old_name": null, "alt_name": null, "light_rail": "yes", "website": null, "phone": null, "addr:street": null, "addr:postcode": null, "addr:housenumber": null, "addr:city": null, "railway:position": null, "addr:state": null, "train": "yes", "station": "light_rail", "short_name": null, "railway:ref": null, "public_transport": "station", "operator": "New Jersey Transit", "network": "NJ Transit", "name": "Cass Street", "level": null }, "geometry": { "type": "Point", "coordinates": [ -74.754307, 40.2054122 ] } },
{ "type": "Feature", "properties": { "full_id": "n6615000263", "osm_id": "6615000263", "osm_type": "node", "railway": "station", "type": null, "ref:amtrak": null, "official_name": null, "old_name": null, "alt_name": null, "light_rail": null, "website": null, "phone": null, "addr:street": "Middlesex Tpke.", "addr:postcode": "08830", "addr:housenumber": "100", "addr:city": "Edison", "railway:position": "mi:23.2", "addr:state": "NJ", "train": "yes", "station": null, "short_name": null, "railway:ref": "MET", "public_transport": "station", "operator": "Amtrak", "network": "Amtrak;NJ Transit", "name": "Metropark", "level": null }, "geometry": { "type": "Point", "coordinates": [ -74.3298744, 40.5682976 ] } },
{ "type": "Feature", "properties": { "full_id": "n6615000261", "osm_id": "6615000261", "osm_type": "node", "railway": "station", "type": null, "ref:amtrak": null, "official_name": null, "old_name": null, "alt_name": null, "light_rail": null, "website": null, "phone": null, "addr:street": null, "addr:postcode": null, "addr:housenumber": null, "addr:city": null, "railway:position": "mi:33.1", "addr:state": null, "train": "yes", "station": null, "short_name": null, "railway:ref": null, "public_transport": "station", "operator": "New Jersey Transit Rail Operations", "network": "NJ Transit", "name": "Jersey Avenue", "level": null }, "geometry": { "type": "Point", "coordinates": [ -74.467922, 40.4770615 ] } },
{ "type": "Feature", "properties": { "full_id": "n7703677003", "osm_id": "7703677003", "osm_type": "node", "railway": "station", "type": null, "ref:amtrak": null, "official_name": null, "old_name": null, "alt_name": null, "light_rail": "yes", "website": null, "phone": null, "addr:street": null, "addr:postcode": null, "addr:housenumber": null, "addr:city": null, "railway:position": null, "addr:state": null, "train": "yes", "station": "light_rail", "short_name": null, "railway:ref": null, "public_transport": "station", "operator": "New Jersey Transit", "network": "NJ Transit", "name": "Hamilton Avenue", "level": null }, "geometry": { "type": "Point", "coordinates": [ -74.7557978, 40.2119288 ] } },
{ "type": "Feature", "properties": { "full_id": "n7703676996", "osm_id": "7703676996", "osm_type": "node", "railway": "station", "type": null, "ref:amtrak": null, "official_name": null, "old_name": null, "alt_name": null, "light_rail": "yes", "website": null, "phone": null, "addr:street": null, "addr:postcode": null, "addr:housenumber": null, "addr:city": null, "railway:position": null, "addr:state": null, "train": "yes", "station": "light_rail", "short_name": null, "railway:ref": null, "public_transport": "station", "operator": "New Jersey Transit", "network": "NJ Transit", "name": "Burlington Towne Centre", "level": null }, "geometry": { "type": "Point", "coordinates": [ -74.8594218, 40.0773392 ] } },
{ "type": "Feature", "properties": { "full_id": "n7703676995", "osm_id": "7703676995", "osm_type": "node", "railway": "station", "type": null, "ref:amtrak": null, "official_name": null, "old_name": null, "alt_name": null, "light_rail": "yes", "website": null, "phone": null, "addr:street": null, "addr:postcode": null, "addr:housenumber": null, "addr:city": null, "railway:position": null, "addr:state": null, "train": "yes", "station": "light_rail", "short_name": null, "railway:ref": null, "public_transport": "station", "operator": "New Jersey Transit", "network": "NJ Transit", "name": "Burlington South", "level": null }, "geometry": { "type": "Point", "coordinates": [ -74.868983, 40.0745844 ] } },
{ "type": "Feature", "properties": { "full_id": "n6633589861", "osm_id": "6633589861", "osm_type": "node", "railway": "station", "type": null, "ref:amtrak": null, "official_name": null, "old_name": null, "alt_name": "Warren Street", "light_rail": "yes", "website": null, "phone": null, "addr:street": null, "addr:postcode": null, "addr:housenumber": null, "addr:city": null, "railway:position": null, "addr:state": null, "train": null, "station": "light_rail", "short_name": null, "railway:ref": null, "public_transport": "station", "operator": "New Jersey Transit Bus Operations", "network": "Newark Light Rail", "name": "Warren Street/NJIT", "level": null }, "geometry": { "type": "Point", "coordinates": [ -74.1810968, 40.7426187 ] } },
{ "type": "Feature", "properties": { "full_id": "n7703676998", "osm_id": "7703676998", "osm_type": "node", "railway": "station", "type": null, "ref:amtrak": null, "official_name": null, "old_name": null, "alt_name": null, "light_rail": "yes", "website": null, "phone": null, "addr:street": null, "addr:postcode": null, "addr:housenumber": null, "addr:city": null, "railway:position": null, "addr:state": null, "train": "yes", "station": "light_rail", "short_name": null, "railway:ref": null, "public_transport": "station", "operator": "New Jersey Transit", "network": "NJ Transit", "name": "Bordentown", "level": null }, "geometry": { "type": "Point", "coordinates": [ -74.7162269, 40.1482344 ] } },
{ "type": "Feature", "properties": { "full_id": "n6633546540", "osm_id": "6633546540", "osm_type": "node", "railway": "station", "type": null, "ref:amtrak": null, "official_name": null, "old_name": null, "alt_name": null, "light_rail": "yes", "website": null, "phone": null, "addr:street": null, "addr:postcode": null, "addr:housenumber": null, "addr:city": null, "railway:position": null, "addr:state": null, "train": null, "station": "light_rail", "short_name": null, "railway:ref": null, "public_transport": "station", "operator": "New Jersey Transit Bus Operations", "network": "Newark Light Rail", "name": "Grove Street", "level": null }, "geometry": { "type": "Point", "coordinates": [ -74.1879163, 40.7804799 ] } },
{ "type": "Feature", "properties": { "full_id": "n7703676997", "osm_id": "7703676997", "osm_type": "node", "railway": "station", "type": null, "ref:amtrak": null, "official_name": null, "old_name": null, "alt_name": null, "light_rail": "yes", "website": null, "phone": null, "addr:street": null, "addr:postcode": null, "addr:housenumber": null, "addr:city": null, "railway:position": null, "addr:state": null, "train": "yes", "station": "light_rail", "short_name": null, "railway:ref": null, "public_transport": "station", "operator": "New Jersey Transit", "network": "NJ Transit", "name": "Roebling", "level": null }, "geometry": { "type": "Point", "coordinates": [ -74.7702404, 40.1169356 ] } },
{ "type": "Feature", "properties": { "full_id": "n6635892911", "osm_id": "6635892911", "osm_type": "node", "railway": "station", "type": null, "ref:amtrak": null, "official_name": null, "old_name": null, "alt_name": null, "light_rail": "yes", "website": null, "phone": null, "addr:street": null, "addr:postcode": null, "addr:housenumber": null, "addr:city": null, "railway:position": null, "addr:state": null, "train": "yes", "station": "light_rail", "short_name": null, "railway:ref": null, "public_transport": "station", "operator": "New Jersey Transit Bus Operations", "network": "NJ Transit", "name": "Davenport Avenue", "level": null }, "geometry": { "type": "Point", "coordinates": [ -74.1781174, 40.7720665 ] } },
{ "type": "Feature", "properties": { "full_id": "n6633615786", "osm_id": "6633615786", "osm_type": "node", "railway": "station", "type": null, "ref:amtrak": null, "official_name": null, "old_name": null, "alt_name": null, "light_rail": "yes", "website": null, "phone": null, "addr:street": null, "addr:postcode": null, "addr:housenumber": null, "addr:city": null, "railway:position": null, "addr:state": null, "train": "yes", "station": "light_rail", "short_name": null, "railway:ref": null, "public_transport": "station", "operator": "New Jersey Transit Bus Operations", "network": "NJ Transit", "name": "Military Park", "level": null }, "geometry": { "type": "Point", "coordinates": [ -74.1709836, 40.7374739 ] } },
{ "type": "Feature", "properties": { "full_id": "n6633542133", "osm_id": "6633542133", "osm_type": "node", "railway": "station", "type": null, "ref:amtrak": null, "official_name": null, "old_name": null, "alt_name": null, "light_rail": "yes", "website": null, "phone": null, "addr:street": null, "addr:postcode": null, "addr:housenumber": null, "addr:city": null, "railway:position": null, "addr:state": null, "train": null, "station": "light_rail", "short_name": null, "railway:ref": null, "public_transport": "station", "operator": "New Jersey Transit Bus Operations", "network": "Newark Light Rail", "name": "Orange Street", "level": null }, "geometry": { "type": "Point", "coordinates": [ -74.184929, 40.7506589 ] } },
{ "type": "Feature", "properties": { "full_id": "n6633504681", "osm_id": "6633504681", "osm_type": "node", "railway": "station", "type": null, "ref:amtrak": null, "official_name": null, "old_name": null, "alt_name": null, "light_rail": "yes", "website": null, "phone": null, "addr:street": null, "addr:postcode": null, "addr:housenumber": null, "addr:city": null, "railway:position": null, "addr:state": null, "train": "yes", "station": "light_rail", "short_name": null, "railway:ref": null, "public_transport": "station", "operator": "New Jersey Transit Bus Operations", "network": "NJ Transit", "name": "Broad Street Station", "level": null }, "geometry": { "type": "Point", "coordinates": [ -74.1718462, 40.7474191 ] } },
{ "type": "Feature", "properties": { "full_id": "n6633542136", "osm_id": "6633542136", "osm_type": "node", "railway": "station", "type": null, "ref:amtrak": null, "official_name": null, "old_name": null, "alt_name": null, "light_rail": "yes", "website": null, "phone": null, "addr:street": null, "addr:postcode": null, "addr:housenumber": null, "addr:city": null, "railway:position": null, "addr:state": null, "train": null, "station": "light_rail", "short_name": null, "railway:ref": null, "public_transport": "station", "operator": "New Jersey Transit Bus Operations", "network": "Newark Light Rail", "name": "Silver Lake", "level": null }, "geometry": { "type": "Point", "coordinates": [ -74.1808088, 40.7803391 ] } },
{ "type": "Feature", "properties": { "full_id": "n6633542135", "osm_id": "6633542135", "osm_type": "node", "railway": "station", "type": null, "ref:amtrak": null, "official_name": null, "old_name": null, "alt_name": null, "light_rail": "yes", "website": null, "phone": null, "addr:street": null, "addr:postcode": null, "addr:housenumber": null, "addr:city": null, "railway:position": null, "addr:state": null, "train": null, "station": "light_rail", "short_name": null, "railway:ref": null, "public_transport": "station", "operator": "New Jersey Transit Bus Operations", "network": "Newark Light Rail", "name": "Branch Brook Park", "level": null }, "geometry": { "type": "Point", "coordinates": [ -74.1747045, 40.77967 ] } },
{ "type": "Feature", "properties": { "full_id": "n2051677435", "osm_id": "2051677435", "osm_type": "node", "railway": "station", "type": null, "ref:amtrak": null, "official_name": null, "old_name": null, "alt_name": null, "light_rail": null, "website": null, "phone": null, "addr:street": null, "addr:postcode": null, "addr:housenumber": null, "addr:city": null, "railway:position": "mi:8.8", "addr:state": "NJ", "train": "yes", "station": null, "short_name": null, "railway:ref": "NWK", "public_transport": "station", "operator": "Amtrak", "network": "Amtrak;NJ Transit", "name": "Newark Penn Station", "level": "1" }, "geometry": { "type": "Point", "coordinates": [ -74.1639563, 40.7345985 ] } },
{ "type": "Feature", "properties": { "full_id": "n7009258890", "osm_id": "7009258890", "osm_type": "node", "railway": "station", "type": null, "ref:amtrak": null, "official_name": null, "old_name": null, "alt_name": null, "light_rail": null, "website": null, "phone": null, "addr:street": null, "addr:postcode": null, "addr:housenumber": null, "addr:city": null, "railway:position": null, "addr:state": null, "train": "yes", "station": null, "short_name": null, "railway:ref": null, "public_transport": "station", "operator": "New Jersey Transit", "network": "NJ Transit", "name": "Mount Tabor", "level": null }, "geometry": { "type": "Point", "coordinates": [ -74.4818716, 40.8758649 ] } },
{ "type": "Feature", "properties": { "full_id": "n7747711122", "osm_id": "7747711122", "osm_type": "node", "railway": "station", "type": null, "ref:amtrak": null, "official_name": null, "old_name": null, "alt_name": null, "light_rail": null, "website": null, "phone": null, "addr:street": null, "addr:postcode": null, "addr:housenumber": null, "addr:city": null, "railway:position": null, "addr:state": null, "train": "yes", "station": null, "short_name": null, "railway:ref": null, "public_transport": "station", "operator": "New Jersey Transit Rail Operations", "network": "NJ Transit", "name": "High Bridge", "level": null }, "geometry": { "type": "Point", "coordinates": [ -74.8959478, 40.6667433 ] } },
{ "type": "Feature", "properties": { "full_id": "n6701051190", "osm_id": "6701051190", "osm_type": "node", "railway": "station", "type": null, "ref:amtrak": null, "official_name": null, "old_name": null, "alt_name": null, "light_rail": null, "website": null, "phone": null, "addr:street": null, "addr:postcode": null, "addr:housenumber": null, "addr:city": null, "railway:position": null, "addr:state": null, "train": "yes", "station": null, "short_name": null, "railway:ref": null, "public_transport": "station", "operator": "New Jersey Transit Rail Operations", "network": "NJ Transit", "name": "Cranford", "level": null }, "geometry": { "type": "Point", "coordinates": [ -74.3028748, 40.6555438 ] } },
{ "type": "Feature", "properties": { "full_id": "n6932200257", "osm_id": "6932200257", "osm_type": "node", "railway": "station", "type": null, "ref:amtrak": null, "official_name": null, "old_name": null, "alt_name": null, "light_rail": "yes", "website": null, "phone": null, "addr:street": null, "addr:postcode": null, "addr:housenumber": null, "addr:city": "Camden", "railway:position": null, "addr:state": null, "train": "yes", "station": "light_rail", "short_name": null, "railway:ref": null, "public_transport": "station", "operator": "New Jersey Transit", "network": "NJ Transit", "name": "Walter Rand Transportation Center", "level": null }, "geometry": { "type": "Point", "coordinates": [ -75.1203267, 39.9431709 ] } },
{ "type": "Feature", "properties": { "full_id": "n6932182725", "osm_id": "6932182725", "osm_type": "node", "railway": "station", "type": null, "ref:amtrak": null, "official_name": null, "old_name": null, "alt_name": null, "light_rail": "yes", "website": null, "phone": null, "addr:street": null, "addr:postcode": null, "addr:housenumber": null, "addr:city": null, "railway:position": null, "addr:state": null, "train": "yes", "station": "light_rail", "short_name": null, "railway:ref": null, "public_transport": "station", "operator": "New Jersey Transit", "network": "NJ Transit", "name": "Florence", "level": null }, "geometry": { "type": "Point", "coordinates": [ -74.8050602, 40.0999865 ] } },
{ "type": "Feature", "properties": { "full_id": "n6635908264", "osm_id": "6635908264", "osm_type": "node", "railway": "station", "type": null, "ref:amtrak": null, "official_name": null, "old_name": null, "alt_name": null, "light_rail": "yes", "website": null, "phone": null, "addr:street": null, "addr:postcode": null, "addr:housenumber": null, "addr:city": null, "railway:position": null, "addr:state": null, "train": "yes", "station": "light_rail", "short_name": null, "railway:ref": null, "public_transport": "station", "operator": "New Jersey Transit Bus Operations", "network": "NJ Transit", "name": "Washington Street", "level": null }, "geometry": { "type": "Point", "coordinates": [ -74.1743625, 40.7384304 ] } },
{ "type": "Feature", "properties": { "full_id": "n9884243024", "osm_id": "9884243024", "osm_type": "node", "railway": "station", "type": null, "ref:amtrak": null, "official_name": null, "old_name": null, "alt_name": null, "light_rail": "yes", "website": null, "phone": null, "addr:street": null, "addr:postcode": null, "addr:housenumber": null, "addr:city": null, "railway:position": null, "addr:state": null, "train": "yes", "station": "light_rail", "short_name": null, "railway:ref": null, "public_transport": "station", "operator": "New Jersey Transit", "network": "NJ Transit", "name": "Glassboro", "level": null }, "geometry": { "type": "Point", "coordinates": [ -75.11103, 39.7009956 ] } },
{ "type": "Feature", "properties": { "full_id": "n6635894093", "osm_id": "6635894093", "osm_type": "node", "railway": "station", "type": null, "ref:amtrak": null, "official_name": null, "old_name": null, "alt_name": null, "light_rail": "yes", "website": null, "phone": null, "addr:street": null, "addr:postcode": null, "addr:housenumber": null, "addr:city": null, "railway:position": null, "addr:state": null, "train": null, "station": "light_rail", "short_name": null, "railway:ref": null, "public_transport": "station", "operator": "New Jersey Transit Bus Operations", "network": "Newark Light Rail", "name": "Bloomfield Avenue", "level": null }, "geometry": { "type": "Point", "coordinates": [ -74.1797043, 40.7657161 ] } },
{ "type": "Feature", "properties": { "full_id": "n7009814501", "osm_id": "7009814501", "osm_type": "node", "railway": "station", "type": null, "ref:amtrak": null, "official_name": null, "old_name": null, "alt_name": null, "light_rail": null, "website": null, "phone": null, "addr:street": null, "addr:postcode": null, "addr:housenumber": null, "addr:city": null, "railway:position": null, "addr:state": null, "train": "yes", "station": null, "short_name": null, "railway:ref": null, "public_transport": "station", "operator": "New Jersey Transit Rail Operations", "network": "NJ Transit", "name": "Upper Montclair", "level": null }, "geometry": { "type": "Point", "coordinates": [ -74.2093631, 40.8421147 ] } },
{ "type": "Feature", "properties": { "full_id": "n2063107836", "osm_id": "2063107836", "osm_type": "node", "railway": "station", "type": null, "ref:amtrak": null, "official_name": null, "old_name": null, "alt_name": null, "light_rail": "yes", "website": null, "phone": null, "addr:street": null, "addr:postcode": null, "addr:housenumber": null, "addr:city": null, "railway:position": null, "addr:state": null, "train": null, "station": "light_rail", "short_name": null, "railway:ref": null, "public_transport": "station", "operator": "New Jersey Transit", "network": "Hudson-Bergen Light Rail", "name": "8th Street", "level": null }, "geometry": { "type": "Point", "coordinates": [ -74.1290734, 40.6542879 ] } },
{ "type": "Feature", "properties": { "full_id": "n6996555657", "osm_id": "6996555657", "osm_type": "node", "railway": "station", "type": null, "ref:amtrak": null, "official_name": null, "old_name": null, "alt_name": null, "light_rail": "yes", "website": null, "phone": null, "addr:street": null, "addr:postcode": null, "addr:housenumber": null, "addr:city": null, "railway:position": null, "addr:state": null, "train": null, "station": "light_rail", "short_name": null, "railway:ref": null, "public_transport": "station", "operator": "New Jersey Transit", "network": "Hudson-Bergen Light Rail", "name": "Danforth Avenue", "level": null }, "geometry": { "type": "Point", "coordinates": [ -74.0872369, 40.6924589 ] } },
{ "type": "Feature", "properties": { "full_id": "n2063107809", "osm_id": "2063107809", "osm_type": "node", "railway": "station", "type": null, "ref:amtrak": null, "official_name": null, "old_name": null, "alt_name": null, "light_rail": "yes", "website": null, "phone": null, "addr:street": null, "addr:postcode": null, "addr:housenumber": null, "addr:city": null, "railway:position": null, "addr:state": null, "train": "yes", "station": "light_rail", "short_name": null, "railway:ref": null, "public_transport": "station", "operator": "New Jersey Transit", "network": "NJ Transit", "name": "Harsimus Cove", "level": null }, "geometry": { "type": "Point", "coordinates": [ -74.0371987, 40.722516 ] } },
{ "type": "Feature", "properties": { "full_id": "n6992955946", "osm_id": "6992955946", "osm_type": "node", "railway": "station", "type": null, "ref:amtrak": null, "official_name": null, "old_name": null, "alt_name": null, "light_rail": "yes", "website": null, "phone": null, "addr:street": null, "addr:postcode": null, "addr:housenumber": null, "addr:city": null, "railway:position": null, "addr:state": null, "train": null, "station": "light_rail", "short_name": null, "railway:ref": null, "public_transport": "station", "operator": "New Jersey Transit", "network": "Hudson-Bergen Light Rail", "name": "22nd Street", "level": null }, "geometry": { "type": "Point", "coordinates": [ -74.116442, 40.6613119 ] } },
{ "type": "Feature", "properties": { "full_id": "n7009837507", "osm_id": "7009837507", "osm_type": "node", "railway": "station", "type": null, "ref:amtrak": null, "official_name": null, "old_name": null, "alt_name": null, "light_rail": null, "website": null, "phone": null, "addr:street": null, "addr:postcode": null, "addr:housenumber": null, "addr:city": null, "railway:position": null, "addr:state": null, "train": "yes", "station": null, "short_name": null, "railway:ref": null, "public_transport": "station", "operator": "New Jersey Transit Rail Operations", "network": "NJ Transit", "name": "Murray Hill", "level": null }, "geometry": { "type": "Point", "coordinates": [ -74.4032021, 40.6949588 ] } },
{ "type": "Feature", "properties": { "full_id": "n6996721553", "osm_id": "6996721553", "osm_type": "node", "railway": "station", "type": null, "ref:amtrak": null, "official_name": null, "old_name": null, "alt_name": null, "light_rail": "yes", "website": null, "phone": null, "addr:street": null, "addr:postcode": null, "addr:housenumber": null, "addr:city": null, "railway:position": null, "addr:state": null, "train": null, "station": "light_rail", "short_name": null, "railway:ref": null, "public_transport": "station", "operator": "New Jersey Transit", "network": "Hudson-Bergen Light Rail", "name": "2nd Street", "level": null }, "geometry": { "type": "Point", "coordinates": [ -74.0427599, 40.7417831 ] } },
{ "type": "Feature", "properties": { "full_id": "n7009837501", "osm_id": "7009837501", "osm_type": "node", "railway": "station", "type": null, "ref:amtrak": null, "official_name": null, "old_name": null, "alt_name": null, "light_rail": null, "website": null, "phone": null, "addr:street": null, "addr:postcode": null, "addr:housenumber": null, "addr:city": null, "railway:position": null, "addr:state": null, "train": "yes", "station": null, "short_name": null, "railway:ref": null, "public_transport": "station", "operator": "New Jersey Transit Rail Operations", "network": "NJ Transit", "name": "Berkeley Heights", "level": null }, "geometry": { "type": "Point", "coordinates": [ -74.4430509, 40.6823204 ] } },
{ "type": "Feature", "properties": { "full_id": "n6996696685", "osm_id": "6996696685", "osm_type": "node", "railway": "station", "type": null, "ref:amtrak": null, "official_name": null, "old_name": null, "alt_name": null, "light_rail": "yes", "website": null, "phone": null, "addr:street": null, "addr:postcode": null, "addr:housenumber": null, "addr:city": null, "railway:position": null, "addr:state": null, "train": null, "station": "light_rail", "short_name": null, "railway:ref": null, "public_transport": "station", "operator": "New Jersey Transit", "network": "Hudson-Bergen Light Rail", "name": "Richard Street", "level": null }, "geometry": { "type": "Point", "coordinates": [ -74.0785082, 40.6992584 ] } },
{ "type": "Feature", "properties": { "full_id": "n12563583448", "osm_id": "12563583448", "osm_type": "node", "railway": "station", "type": null, "ref:amtrak": null, "official_name": null, "old_name": null, "alt_name": null, "light_rail": null, "website": null, "phone": null, "addr:street": null, "addr:postcode": null, "addr:housenumber": null, "addr:city": null, "railway:position": "mi:57.0", "addr:state": null, "train": "yes", "station": null, "short_name": null, "railway:ref": null, "public_transport": "station", "operator": "New Jersey Transit Rail Operations", "network": null, "name": "Hampton", "level": null }, "geometry": { "type": "Point", "coordinates": [ -74.9584125, 40.7073462 ] } },
{ "type": "Feature", "properties": { "full_id": "n6969053901", "osm_id": "6969053901", "osm_type": "node", "railway": "station", "type": null, "ref:amtrak": null, "official_name": null, "old_name": null, "alt_name": null, "light_rail": "yes", "website": null, "phone": null, "addr:street": null, "addr:postcode": null, "addr:housenumber": null, "addr:city": null, "railway:position": null, "addr:state": null, "train": "yes", "station": "light_rail", "short_name": null, "railway:ref": null, "public_transport": "station", "operator": "New Jersey Transit", "network": "NJ Transit", "name": "Riverside", "level": null }, "geometry": { "type": "Point", "coordinates": [ -74.9588585, 40.0392527 ] } },
{ "type": "Feature", "properties": { "full_id": "n13389430197", "osm_id": "13389430197", "osm_type": "node", "railway": "station", "type": null, "ref:amtrak": null, "official_name": null, "old_name": null, "alt_name": null, "light_rail": "yes", "website": null, "phone": null, "addr:street": null, "addr:postcode": null, "addr:housenumber": null, "addr:city": null, "railway:position": null, "addr:state": null, "train": "yes", "station": "light_rail", "short_name": null, "railway:ref": null, "public_transport": "station", "operator": "New Jersey Transit", "network": "NJ Transit", "name": "Pitman", "level": null }, "geometry": { "type": "Point", "coordinates": [ -75.1291454, 39.7328042 ] } },
{ "type": "Feature", "properties": { "full_id": "n6969053899", "osm_id": "6969053899", "osm_type": "node", "railway": "station", "type": null, "ref:amtrak": null, "official_name": null, "old_name": null, "alt_name": null, "light_rail": "yes", "website": null, "phone": null, "addr:street": null, "addr:postcode": null, "addr:housenumber": null, "addr:city": null, "railway:position": null, "addr:state": null, "train": "yes", "station": "light_rail", "short_name": null, "railway:ref": null, "public_transport": "station", "operator": "New Jersey Transit", "network": "NJ Transit", "name": "Delanco", "level": null }, "geometry": { "type": "Point", "coordinates": [ -74.9503586, 40.0480822 ] } },
{ "type": "Feature", "properties": { "full_id": "n13389430196", "osm_id": "13389430196", "osm_type": "node", "railway": "station", "type": null, "ref:amtrak": null, "official_name": null, "old_name": null, "alt_name": null, "light_rail": "yes", "website": null, "phone": null, "addr:street": null, "addr:postcode": null, "addr:housenumber": null, "addr:city": null, "railway:position": null, "addr:state": null, "train": "yes", "station": "light_rail", "short_name": null, "railway:ref": null, "public_transport": "station", "operator": "New Jersey Transit", "network": "NJ Transit", "name": "North Glassboro", "level": null }, "geometry": { "type": "Point", "coordinates": [ -75.124505, 39.7108467 ] } },
{ "type": "Feature", "properties": { "full_id": "n6969053904", "osm_id": "6969053904", "osm_type": "node", "railway": "station", "type": null, "ref:amtrak": null, "official_name": null, "old_name": null, "alt_name": null, "light_rail": "yes", "website": null, "phone": null, "addr:street": null, "addr:postcode": null, "addr:housenumber": null, "addr:city": null, "railway:position": null, "addr:state": null, "train": "yes", "station": "light_rail", "short_name": null, "railway:ref": null, "public_transport": "station", "operator": "New Jersey Transit", "network": "NJ Transit", "name": "36th Street", "level": null }, "geometry": { "type": "Point", "coordinates": [ -75.0791623, 39.9612908 ] } },
{ "type": "Feature", "properties": { "full_id": "n6969053902", "osm_id": "6969053902", "osm_type": "node", "railway": "station", "type": null, "ref:amtrak": null, "official_name": null, "old_name": null, "alt_name": null, "light_rail": "yes", "website": null, "phone": null, "addr:street": null, "addr:postcode": null, "addr:housenumber": null, "addr:city": null, "railway:position": null, "addr:state": null, "train": "yes", "station": "light_rail", "short_name": null, "railway:ref": null, "public_transport": "station", "operator": "New Jersey Transit", "network": "NJ Transit", "name": "Adventure Aquarium", "level": null }, "geometry": { "type": "Point", "coordinates": [ -75.1287362, 39.9456573 ] } },
{ "type": "Feature", "properties": { "full_id": "n7009873759", "osm_id": "7009873759", "osm_type": "node", "railway": "station", "type": null, "ref:amtrak": null, "official_name": null, "old_name": null, "alt_name": null, "light_rail": null, "website": null, "phone": null, "addr:street": null, "addr:postcode": null, "addr:housenumber": null, "addr:city": null, "railway:position": null, "addr:state": null, "train": "yes", "station": null, "short_name": null, "railway:ref": null, "public_transport": "station", "operator": "New Jersey Transit Rail Operations", "network": "NJ Transit", "name": "North Branch", "level": null }, "geometry": { "type": "Point", "coordinates": [ -74.6843032, 40.5925093 ] } },
{ "type": "Feature", "properties": { "full_id": "n7009873757", "osm_id": "7009873757", "osm_type": "node", "railway": "station", "type": null, "ref:amtrak": null, "official_name": null, "old_name": null, "alt_name": null, "light_rail": null, "website": null, "phone": null, "addr:street": null, "addr:postcode": null, "addr:housenumber": null, "addr:city": null, "railway:position": null, "addr:state": null, "train": "yes", "station": null, "short_name": null, "railway:ref": null, "public_transport": "station", "operator": "New Jersey Transit Rail Operations", "network": "NJ Transit", "name": "Fanwood", "level": null }, "geometry": { "type": "Point", "coordinates": [ -74.3851454, 40.6408489 ] } },
{ "type": "Feature", "properties": { "full_id": "n12563583447", "osm_id": "12563583447", "osm_type": "node", "railway": "station", "type": null, "ref:amtrak": null, "official_name": null, "old_name": null, "alt_name": null, "light_rail": null, "website": null, "phone": null, "addr:street": null, "addr:postcode": null, "addr:housenumber": null, "addr:city": null, "railway:position": "mi:55.2", "addr:state": null, "train": "yes", "station": null, "short_name": null, "railway:ref": null, "public_transport": "station", "operator": "New Jersey Transit Rail Operations", "network": null, "name": "Glen Gardner", "level": null }, "geometry": { "type": "Point", "coordinates": [ -74.9368091, 40.6932333 ] } },
{ "type": "Feature", "properties": { "full_id": "n295870178", "osm_id": "295870178", "osm_type": "node", "railway": "station", "type": null, "ref:amtrak": null, "official_name": null, "old_name": null, "alt_name": null, "light_rail": "yes", "website": null, "phone": null, "addr:street": null, "addr:postcode": null, "addr:housenumber": null, "addr:city": null, "railway:position": null, "addr:state": null, "train": null, "station": "light_rail", "short_name": null, "railway:ref": null, "public_transport": "station", "operator": "New Jersey Transit", "network": "Hudson-Bergen Light Rail", "name": "Harborside Financial Center", "level": null }, "geometry": { "type": "Point", "coordinates": [ -74.0339995, 40.7194979 ] } },
{ "type": "Feature", "properties": { "full_id": "n6996858598", "osm_id": "6996858598", "osm_type": "node", "railway": "station", "type": null, "ref:amtrak": null, "official_name": null, "old_name": null, "alt_name": null, "light_rail": "yes", "website": null, "phone": null, "addr:street": null, "addr:postcode": null, "addr:housenumber": null, "addr:city": null, "railway:position": null, "addr:state": null, "train": null, "station": "light_rail", "short_name": null, "railway:ref": null, "public_transport": "station", "operator": "New Jersey Transit", "network": "Hudson-Bergen Light Rail", "name": "West Side Avenue", "level": null }, "geometry": { "type": "Point", "coordinates": [ -74.086992, 40.7144895 ] } },
{ "type": "Feature", "properties": { "full_id": "n7009873762", "osm_id": "7009873762", "osm_type": "node", "railway": "station", "type": null, "ref:amtrak": null, "official_name": null, "old_name": null, "alt_name": null, "light_rail": null, "website": null, "phone": null, "addr:street": null, "addr:postcode": null, "addr:housenumber": null, "addr:city": null, "railway:position": null, "addr:state": null, "train": "yes", "station": null, "short_name": null, "railway:ref": null, "public_transport": "station", "operator": "New Jersey Transit Rail Operations", "network": "NJ Transit", "name": "Somerville", "level": null }, "geometry": { "type": "Point", "coordinates": [ -74.614078, 40.566212 ] } },
{ "type": "Feature", "properties": { "full_id": "n7009873761", "osm_id": "7009873761", "osm_type": "node", "railway": "station", "type": null, "ref:amtrak": null, "official_name": null, "old_name": null, "alt_name": null, "light_rail": null, "website": null, "phone": null, "addr:street": null, "addr:postcode": null, "addr:housenumber": null, "addr:city": null, "railway:position": null, "addr:state": null, "train": "yes", "station": null, "short_name": null, "railway:ref": null, "public_transport": "station", "operator": "New Jersey Transit Rail Operations", "network": "NJ Transit", "name": "Lebanon", "level": null }, "geometry": { "type": "Point", "coordinates": [ -74.8360668, 40.6368709 ] } },
{ "type": "Feature", "properties": { "full_id": "n2069282000", "osm_id": "2069282000", "osm_type": "node", "railway": "station", "type": null, "ref:amtrak": null, "official_name": null, "old_name": null, "alt_name": null, "light_rail": null, "website": null, "phone": null, "addr:street": null, "addr:postcode": null, "addr:housenumber": null, "addr:city": null, "railway:position": "mi:47.1", "addr:state": "NJ", "train": "yes", "station": null, "short_name": null, "railway:ref": "PJC", "public_transport": "station", "operator": "Amtrak", "network": "Amtrak;NJ Transit", "name": "Princeton Junction", "level": null }, "geometry": { "type": "Point", "coordinates": [ -74.6241189, 40.3159898 ] } },
{ "type": "Feature", "properties": { "full_id": "n2069281983", "osm_id": "2069281983", "osm_type": "node", "railway": "station", "type": null, "ref:amtrak": null, "official_name": null, "old_name": null, "alt_name": null, "light_rail": "yes", "website": null, "phone": null, "addr:street": null, "addr:postcode": null, "addr:housenumber": null, "addr:city": null, "railway:position": null, "addr:state": null, "train": "yes", "station": "light_rail", "short_name": null, "railway:ref": null, "public_transport": "station", "operator": "New Jersey Transit", "network": "NJ Transit", "name": "Cooper Street–Rutgers", "level": null }, "geometry": { "type": "Point", "coordinates": [ -75.1248002, 39.9476406 ] } },
{ "type": "Feature", "properties": { "full_id": "n295870181", "osm_id": "295870181", "osm_type": "node", "railway": "station", "type": null, "ref:amtrak": null, "official_name": null, "old_name": null, "alt_name": null, "light_rail": "yes", "website": null, "phone": null, "addr:street": null, "addr:postcode": null, "addr:housenumber": null, "addr:city": null, "railway:position": null, "addr:state": null, "train": null, "station": "light_rail", "short_name": null, "railway:ref": null, "public_transport": "station", "operator": "New Jersey Transit", "network": "Hudson-Bergen Light Rail", "name": "Essex Street", "level": null }, "geometry": { "type": "Point", "coordinates": [ -74.0359523, 40.7128648 ] } },
{ "type": "Feature", "properties": { "full_id": "n7009873754", "osm_id": "7009873754", "osm_type": "node", "railway": "station", "type": null, "ref:amtrak": null, "official_name": null, "old_name": null, "alt_name": null, "light_rail": null, "website": null, "phone": null, "addr:street": null, "addr:postcode": null, "addr:housenumber": null, "addr:city": null, "railway:position": null, "addr:state": null, "train": "yes", "station": null, "short_name": null, "railway:ref": null, "public_transport": "station", "operator": "New Jersey Transit Rail Operations", "network": "NJ Transit", "name": "Netherwood", "level": null }, "geometry": { "type": "Point", "coordinates": [ -74.4033895, 40.6290506 ] } },
{ "type": "Feature", "properties": { "full_id": "n295870180", "osm_id": "295870180", "osm_type": "node", "railway": "station", "type": null, "ref:amtrak": null, "official_name": null, "old_name": null, "alt_name": null, "light_rail": "yes", "website": null, "phone": null, "addr:street": null, "addr:postcode": null, "addr:housenumber": null, "addr:city": null, "railway:position": null, "addr:state": null, "train": null, "station": "light_rail", "short_name": null, "railway:ref": null, "public_transport": "station", "operator": "New Jersey Transit", "network": "Hudson-Bergen Light Rail", "name": "Exchange Place", "level": null }, "geometry": { "type": "Point", "coordinates": [ -74.0341139, 40.7160215 ] } },
{ "type": "Feature", "properties": { "full_id": "n6996783949", "osm_id": "6996783949", "osm_type": "node", "railway": "station", "type": null, "ref:amtrak": null, "official_name": null, "old_name": null, "alt_name": null, "light_rail": "yes", "website": null, "phone": null, "addr:street": null, "addr:postcode": null, "addr:housenumber": null, "addr:city": null, "railway:position": null, "addr:state": null, "train": null, "station": "light_rail", "short_name": null, "railway:ref": null, "public_transport": "station", "operator": "New Jersey Transit", "network": "Hudson-Bergen Light Rail", "name": "Port Imperial", "level": null }, "geometry": { "type": "Point", "coordinates": [ -74.0127799, 40.7760032 ] } },
{ "type": "Feature", "properties": { "full_id": "n7009873753", "osm_id": "7009873753", "osm_type": "node", "railway": "station", "type": null, "ref:amtrak": null, "official_name": null, "old_name": null, "alt_name": null, "light_rail": null, "website": null, "phone": null, "addr:street": null, "addr:postcode": null, "addr:housenumber": null, "addr:city": null, "railway:position": null, "addr:state": null, "train": "yes", "station": null, "short_name": null, "railway:ref": null, "public_transport": "station", "operator": "New Jersey Transit Rail Operations", "network": "NJ Transit", "name": "Westfield", "level": null }, "geometry": { "type": "Point", "coordinates": [ -74.3476028, 40.6492804 ] } },
{ "type": "Feature", "properties": { "full_id": "n2069282003", "osm_id": "2069282003", "osm_type": "node", "railway": "station", "type": null, "ref:amtrak": null, "official_name": null, "old_name": null, "alt_name": null, "light_rail": null, "website": null, "phone": null, "addr:street": null, "addr:postcode": null, "addr:housenumber": null, "addr:city": null, "railway:position": "mi:56.7", "addr:state": "NJ", "train": "yes", "station": null, "short_name": null, "railway:ref": "TRE", "public_transport": "station", "operator": "Amtrak", "network": "Amtrak;SEPTA;NJ Transit", "name": "Trenton", "level": null }, "geometry": { "type": "Point", "coordinates": [ -74.7539009, 40.2185331 ] } },
{ "type": "Feature", "properties": { "full_id": "n6996754371", "osm_id": "6996754371", "osm_type": "node", "railway": "station", "type": null, "ref:amtrak": null, "official_name": null, "old_name": null, "alt_name": null, "light_rail": "yes", "website": null, "phone": null, "addr:street": null, "addr:postcode": null, "addr:housenumber": null, "addr:city": null, "railway:position": null, "addr:state": null, "train": null, "station": "light_rail", "short_name": null, "railway:ref": null, "public_transport": "station", "operator": "New Jersey Transit", "network": "Hudson-Bergen Light Rail", "name": "Jersey Avenue", "level": null }, "geometry": { "type": "Point", "coordinates": [ -74.0484689, 40.7150464 ] } },
{ "type": "Feature", "properties": { "full_id": "n7009873756", "osm_id": "7009873756", "osm_type": "node", "railway": "station", "type": null, "ref:amtrak": null, "official_name": null, "old_name": null, "alt_name": null, "light_rail": null, "website": null, "phone": null, "addr:street": null, "addr:postcode": null, "addr:housenumber": null, "addr:city": null, "railway:position": null, "addr:state": null, "train": "yes", "station": null, "short_name": null, "railway:ref": null, "public_transport": "station", "operator": "New Jersey Transit Rail Operations", "network": "NJ Transit", "name": "Annandale", "level": null }, "geometry": { "type": "Point", "coordinates": [ -74.8789057, 40.6451477 ] } },
{ "type": "Feature", "properties": { "full_id": "n2832889509", "osm_id": "2832889509", "osm_type": "node", "railway": "station", "type": null, "ref:amtrak": null, "official_name": null, "old_name": null, "alt_name": null, "light_rail": null, "website": "https://www.njtransit.com/", "phone": null, "addr:street": "Derousse Avenue", "addr:postcode": null, "addr:housenumber": null, "addr:city": "Pennsauken Township", "railway:position": null, "addr:state": null, "train": "yes", "station": null, "short_name": null, "railway:ref": null, "public_transport": "station", "operator": "New Jersey Transit Rail Operations", "network": "NJ Transit", "name": "Pennsauken Transit Center", "level": null }, "geometry": { "type": "Point", "coordinates": [ -75.0619913, 39.9778827 ] } },
{ "type": "Feature", "properties": { "full_id": "n6996858596", "osm_id": "6996858596", "osm_type": "node", "railway": "station", "type": null, "ref:amtrak": null, "official_name": null, "old_name": null, "alt_name": null, "light_rail": "yes", "website": null, "phone": null, "addr:street": null, "addr:postcode": null, "addr:housenumber": null, "addr:city": null, "railway:position": null, "addr:state": null, "train": null, "station": "light_rail", "short_name": null, "railway:ref": null, "public_transport": "station", "operator": "New Jersey Transit", "network": "Hudson-Bergen Light Rail", "name": "Martin Luther King Drive", "level": null }, "geometry": { "type": "Point", "coordinates": [ -74.0772496, 40.7121001 ] } },
{ "type": "Feature", "properties": { "full_id": "n7009873755", "osm_id": "7009873755", "osm_type": "node", "railway": "station", "type": null, "ref:amtrak": null, "official_name": null, "old_name": null, "alt_name": null, "light_rail": null, "website": null, "phone": null, "addr:street": null, "addr:postcode": null, "addr:housenumber": null, "addr:city": null, "railway:position": null, "addr:state": null, "train": "yes", "station": null, "short_name": null, "railway:ref": null, "public_transport": "station", "operator": "New Jersey Transit Rail Operations", "network": "NJ Transit", "name": "Garwood", "level": null }, "geometry": { "type": "Point", "coordinates": [ -74.325085, 40.6525242 ] } },
{ "type": "Feature", "properties": { "full_id": "n2832889508", "osm_id": "2832889508", "osm_type": "node", "railway": "station", "type": null, "ref:amtrak": null, "official_name": null, "old_name": null, "alt_name": null, "light_rail": "yes", "website": "https://www.njtransit.com/", "phone": null, "addr:street": "Derousse Avenue", "addr:postcode": null, "addr:housenumber": null, "addr:city": "Pennsauken Township", "railway:position": null, "addr:state": null, "train": "yes", "station": "light_rail", "short_name": null, "railway:ref": null, "public_transport": "station", "operator": "New Jersey Transit", "network": "NJ Transit", "name": "Pennsauken Transit Center", "level": null }, "geometry": { "type": "Point", "coordinates": [ -75.0619519, 39.9782608 ] } },
{ "type": "Feature", "properties": { "full_id": "n6996844792", "osm_id": "6996844792", "osm_type": "node", "railway": "station", "type": null, "ref:amtrak": null, "official_name": null, "old_name": null, "alt_name": null, "light_rail": "yes", "website": null, "phone": null, "addr:street": null, "addr:postcode": null, "addr:housenumber": null, "addr:city": null, "railway:position": null, "addr:state": null, "train": null, "station": "light_rail", "short_name": null, "railway:ref": null, "public_transport": "station", "operator": "New Jersey Transit", "network": "Hudson-Bergen Light Rail", "name": "Garfield Avenue", "level": null }, "geometry": { "type": "Point", "coordinates": [ -74.0711323, 40.7105791 ] } },
{ "type": "Feature", "properties": { "full_id": "n7012717218", "osm_id": "7012717218", "osm_type": "node", "railway": "station", "type": null, "ref:amtrak": "YNY", "official_name": null, "old_name": null, "alt_name": null, "light_rail": null, "website": null, "phone": null, "addr:street": "Buena Vista Avenue", "addr:postcode": "10701", "addr:housenumber": "5", "addr:city": "Yonkers", "railway:position": null, "addr:state": "NY", "train": "yes", "station": null, "short_name": null, "railway:ref": "YNY", "public_transport": "station", "operator": "Amtrak", "network": "Amtrak;Metro-North Railroad", "name": "Yonkers", "level": null }, "geometry": { "type": "Point", "coordinates": [ -73.9023471, 40.9355914 ] } },
{ "type": "Feature", "properties": { "full_id": "n7004606702", "osm_id": "7004606702", "osm_type": "node", "railway": "station", "type": null, "ref:amtrak": null, "official_name": null, "old_name": null, "alt_name": null, "light_rail": null, "website": null, "phone": null, "addr:street": null, "addr:postcode": null, "addr:housenumber": null, "addr:city": null, "railway:position": null, "addr:state": null, "train": "yes", "station": null, "short_name": null, "railway:ref": "HTN", "public_transport": "station", "operator": "New Jersey Transit Rail Operations", "network": "NJ Transit", "name": "Hammonton", "level": null }, "geometry": { "type": "Point", "coordinates": [ -74.7994655, 39.6315664 ] } },
{ "type": "Feature", "properties": { "full_id": "n299177577", "osm_id": "299177577", "osm_type": "node", "railway": "station", "type": null, "ref:amtrak": null, "official_name": null, "old_name": null, "alt_name": null, "light_rail": "yes", "website": null, "phone": null, "addr:street": null, "addr:postcode": null, "addr:housenumber": null, "addr:city": null, "railway:position": null, "addr:state": null, "train": null, "station": "light_rail", "short_name": null, "railway:ref": null, "public_transport": "station", "operator": "New Jersey Transit Bus Operations", "network": "Newark Light Rail", "name": "Norfolk Street", "level": null }, "geometry": { "type": "Point", "coordinates": [ -74.1829578, 40.7453073 ] } },
{ "type": "Feature", "properties": { "full_id": "n7004606701", "osm_id": "7004606701", "osm_type": "node", "railway": "station", "type": null, "ref:amtrak": null, "official_name": null, "old_name": null, "alt_name": null, "light_rail": null, "website": null, "phone": null, "addr:street": null, "addr:postcode": null, "addr:housenumber": null, "addr:city": null, "railway:position": null, "addr:state": null, "train": "yes", "station": null, "short_name": null, "railway:ref": "ATO", "public_transport": "station", "operator": "New Jersey Transit Rail Operations", "network": "NJ Transit", "name": "Atco", "level": null }, "geometry": { "type": "Point", "coordinates": [ -74.9077919, 39.7836223 ] } },
{ "type": "Feature", "properties": { "full_id": "n13389520001", "osm_id": "13389520001", "osm_type": "node", "railway": "station", "type": "public_transport", "ref:amtrak": null, "official_name": null, "old_name": null, "alt_name": null, "light_rail": "yes", "website": null, "phone": null, "addr:street": null, "addr:postcode": null, "addr:housenumber": null, "addr:city": null, "railway:position": null, "addr:state": null, "train": "yes", "station": "light_rail", "short_name": null, "railway:ref": null, "public_transport": "stop_area", "operator": "New Jersey Transit", "network": "NJ Transit", "name": null, "level": null }, "geometry": { "type": "Point", "coordinates": [ -75.150037, 39.8360359 ] } },
{ "type": "Feature", "properties": { "full_id": "n2731261234", "osm_id": "2731261234", "osm_type": "node", "railway": "station", "type": null, "ref:amtrak": null, "official_name": null, "old_name": null, "alt_name": null, "light_rail": "yes", "website": null, "phone": null, "addr:street": null, "addr:postcode": null, "addr:housenumber": null, "addr:city": null, "railway:position": null, "addr:state": null, "train": "yes", "station": "light_rail", "short_name": null, "railway:ref": null, "public_transport": "station", "operator": "New Jersey Transit", "network": "Hudson-Bergen Light Rail", "name": "Newport", "level": null }, "geometry": { "type": "Point", "coordinates": [ -74.0360637, 40.727029 ] } },
{ "type": "Feature", "properties": { "full_id": "n7004606704", "osm_id": "7004606704", "osm_type": "node", "railway": "station", "type": null, "ref:amtrak": null, "official_name": null, "old_name": null, "alt_name": null, "light_rail": null, "website": null, "phone": null, "addr:street": null, "addr:postcode": null, "addr:housenumber": null, "addr:city": null, "railway:position": null, "addr:state": null, "train": "yes", "station": null, "short_name": null, "railway:ref": "ABN", "public_transport": "station", "operator": "New Jersey Transit Rail Operations", "network": "NJ Transit", "name": "Absecon", "level": null }, "geometry": { "type": "Point", "coordinates": [ -74.5015915, 39.4239718 ] } },
{ "type": "Feature", "properties": { "full_id": "n1319496963", "osm_id": "1319496963", "osm_type": "node", "railway": "station", "type": null, "ref:amtrak": null, "official_name": null, "old_name": null, "alt_name": null, "light_rail": null, "website": null, "phone": null, "addr:street": null, "addr:postcode": null, "addr:housenumber": null, "addr:city": null, "railway:position": null, "addr:state": null, "train": "yes", "station": null, "short_name": null, "railway:ref": null, "public_transport": "station", "operator": "New Jersey Transit Rail Operations", "network": "NJ Transit", "name": "Union", "level": null }, "geometry": { "type": "Point", "coordinates": [ -74.2380355, 40.6839649 ] } },
{ "type": "Feature", "properties": { "full_id": "n7004606703", "osm_id": "7004606703", "osm_type": "node", "railway": "station", "type": null, "ref:amtrak": null, "official_name": null, "old_name": null, "alt_name": null, "light_rail": null, "website": null, "phone": null, "addr:street": null, "addr:postcode": null, "addr:housenumber": null, "addr:city": null, "railway:position": null, "addr:state": null, "train": "yes", "station": null, "short_name": null, "railway:ref": "EGH", "public_transport": "station", "operator": "New Jersey Transit Rail Operations", "network": "NJ Transit", "name": "Egg Harbor City", "level": null }, "geometry": { "type": "Point", "coordinates": [ -74.6480736, 39.5264564 ] } },
{ "type": "Feature", "properties": { "full_id": "n7009873764", "osm_id": "7009873764", "osm_type": "node", "railway": "station", "type": null, "ref:amtrak": null, "official_name": null, "old_name": null, "alt_name": null, "light_rail": null, "website": null, "phone": null, "addr:street": null, "addr:postcode": null, "addr:housenumber": null, "addr:city": null, "railway:position": null, "addr:state": null, "train": "yes", "station": null, "short_name": null, "railway:ref": null, "public_transport": "station", "operator": "New Jersey Transit Rail Operations", "network": "NJ Transit", "name": "Raritan", "level": null }, "geometry": { "type": "Point", "coordinates": [ -74.6343969, 40.5710131 ] } },
{ "type": "Feature", "properties": { "full_id": "n1319448262", "osm_id": "1319448262", "osm_type": "node", "railway": "station", "type": null, "ref:amtrak": null, "official_name": null, "old_name": null, "alt_name": null, "light_rail": null, "website": null, "phone": null, "addr:street": null, "addr:postcode": null, "addr:housenumber": null, "addr:city": null, "railway:position": null, "addr:state": null, "train": "yes", "station": null, "short_name": null, "railway:ref": null, "public_transport": "station", "operator": "New Jersey Transit Rail Operations", "network": "NJ Transit", "name": "Roselle Park", "level": null }, "geometry": { "type": "Point", "coordinates": [ -74.265764, 40.6674628 ] } },
{ "type": "Feature", "properties": { "full_id": "n2731319074", "osm_id": "2731319074", "osm_type": "node", "railway": "station", "type": null, "ref:amtrak": null, "official_name": null, "old_name": null, "alt_name": null, "light_rail": "yes", "website": null, "phone": null, "addr:street": null, "addr:postcode": null, "addr:housenumber": null, "addr:city": null, "railway:position": null, "addr:state": null, "train": null, "station": "light_rail", "short_name": null, "railway:ref": null, "public_transport": "station", "operator": "New Jersey Transit", "network": "Hudson-Bergen Light Rail", "name": "Bergenline Avenue", "level": "-1" }, "geometry": { "type": "Point", "coordinates": [ -74.0220189, 40.7821664 ] } },
{ "type": "Feature", "properties": { "full_id": "n299177579", "osm_id": "299177579", "osm_type": "node", "railway": "station", "type": null, "ref:amtrak": null, "official_name": null, "old_name": null, "alt_name": null, "light_rail": "yes", "website": null, "phone": null, "addr:street": null, "addr:postcode": null, "addr:housenumber": null, "addr:city": null, "railway:position": null, "addr:state": null, "train": null, "station": "light_rail", "short_name": null, "railway:ref": null, "public_transport": "station", "operator": "New Jersey Transit Bus Operations", "network": "Newark Light Rail", "name": "Park Avenue", "level": null }, "geometry": { "type": "Point", "coordinates": [ -74.1848746, 40.7588303 ] } },
{ "type": "Feature", "properties": { "full_id": "n7009873763", "osm_id": "7009873763", "osm_type": "node", "railway": "station", "type": null, "ref:amtrak": null, "official_name": null, "old_name": null, "alt_name": null, "light_rail": null, "website": null, "phone": null, "addr:street": "East Main Street", "addr:postcode": "08805", "addr:housenumber": "300", "addr:city": "Bound Brook", "railway:position": null, "addr:state": "NJ", "train": "yes", "station": null, "short_name": null, "railway:ref": null, "public_transport": "station", "operator": "New Jersey Transit Rail Operations", "network": "NJ Transit", "name": "Bound Brook", "level": null }, "geometry": { "type": "Point", "coordinates": [ -74.5302987, 40.5609731 ] } },
{ "type": "Feature", "properties": { "full_id": "n2731306623", "osm_id": "2731306623", "osm_type": "node", "railway": "station", "type": null, "ref:amtrak": null, "official_name": null, "old_name": null, "alt_name": null, "light_rail": "yes", "website": null, "phone": null, "addr:street": null, "addr:postcode": null, "addr:housenumber": null, "addr:city": null, "railway:position": null, "addr:state": null, "train": "yes", "station": "light_rail", "short_name": null, "railway:ref": null, "public_transport": "station", "operator": "New Jersey Transit", "network": "NJ Transit", "name": "Tonnelle Avenue", "level": null }, "geometry": { "type": "Point", "coordinates": [ -74.0315526, 40.787684 ] } },
{ "type": "Feature", "properties": { "full_id": "n295870191", "osm_id": "295870191", "osm_type": "node", "railway": "station", "type": null, "ref:amtrak": null, "official_name": null, "old_name": null, "alt_name": null, "light_rail": "yes", "website": null, "phone": null, "addr:street": null, "addr:postcode": null, "addr:housenumber": null, "addr:city": null, "railway:position": null, "addr:state": null, "train": null, "station": "light_rail", "short_name": null, "railway:ref": null, "public_transport": "station", "operator": "New Jersey Transit", "network": "Hudson-Bergen Light Rail", "name": "Liberty State Park", "level": null }, "geometry": { "type": "Point", "coordinates": [ -74.0559652, 40.7103247 ] } },
{ "type": "Feature", "properties": { "full_id": "n7009873766", "osm_id": "7009873766", "osm_type": "node", "railway": "station", "type": null, "ref:amtrak": null, "official_name": null, "old_name": null, "alt_name": null, "light_rail": null, "website": null, "phone": null, "addr:street": null, "addr:postcode": null, "addr:housenumber": null, "addr:city": null, "railway:position": null, "addr:state": null, "train": "yes", "station": null, "short_name": null, "railway:ref": null, "public_transport": "station", "operator": "New Jersey Transit Rail Operations", "network": "NJ Transit", "name": "White House", "level": null }, "geometry": { "type": "Point", "coordinates": [ -74.7707356, 40.6155126 ] } },
{ "type": "Feature", "properties": { "full_id": "n295870188", "osm_id": "295870188", "osm_type": "node", "railway": "station", "type": null, "ref:amtrak": null, "official_name": null, "old_name": null, "alt_name": null, "light_rail": "yes", "website": null, "phone": null, "addr:street": null, "addr:postcode": null, "addr:housenumber": null, "addr:city": null, "railway:position": null, "addr:state": null, "train": null, "station": "light_rail", "short_name": null, "railway:ref": null, "public_transport": "station", "operator": "New Jersey Transit", "network": "Hudson-Bergen Light Rail", "name": "Marin Boulevard", "level": null }, "geometry": { "type": "Point", "coordinates": [ -74.0432714, 40.7144578 ] } },
{ "type": "Feature", "properties": { "full_id": "n7004606700", "osm_id": "7004606700", "osm_type": "node", "railway": "station", "type": null, "ref:amtrak": null, "official_name": null, "old_name": null, "alt_name": null, "light_rail": null, "website": null, "phone": null, "addr:street": null, "addr:postcode": null, "addr:housenumber": null, "addr:city": null, "railway:position": null, "addr:state": null, "train": "yes", "station": null, "short_name": null, "railway:ref": null, "public_transport": "station", "operator": "New Jersey Transit Rail Operations", "network": "NJ Transit", "name": "Cherry Hill", "level": null }, "geometry": { "type": "Point", "coordinates": [ -75.0417589, 39.9284378 ] } },
{ "type": "Feature", "properties": { "full_id": "n7009873765", "osm_id": "7009873765", "osm_type": "node", "railway": "station", "type": null, "ref:amtrak": null, "official_name": null, "old_name": null, "alt_name": null, "light_rail": null, "website": null, "phone": null, "addr:street": null, "addr:postcode": null, "addr:housenumber": null, "addr:city": null, "railway:position": null, "addr:state": null, "train": "yes", "station": null, "short_name": null, "railway:ref": null, "public_transport": "station", "operator": "New Jersey Transit Rail Operations", "network": "NJ Transit", "name": "Bridgewater", "level": null }, "geometry": { "type": "Point", "coordinates": [ -74.5517146, 40.5598127 ] } },
{ "type": "Feature", "properties": { "full_id": "n3417361969", "osm_id": "3417361969", "osm_type": "node", "railway": "station", "type": null, "ref:amtrak": null, "official_name": null, "old_name": null, "alt_name": null, "light_rail": null, "website": null, "phone": null, "addr:street": "Lincoln Avenue", "addr:postcode": null, "addr:housenumber": "73", "addr:city": "Orange", "railway:position": null, "addr:state": "NJ", "train": "yes", "station": null, "short_name": null, "railway:ref": null, "public_transport": "station", "operator": "New Jersey Transit", "network": "NJ Transit", "name": "Orange", "level": null }, "geometry": { "type": "Point", "coordinates": [ -74.233294, 40.7717821 ] } },
{ "type": "Feature", "properties": { "full_id": "n13616143710", "osm_id": "13616143710", "osm_type": "node", "railway": "station", "type": null, "ref:amtrak": null, "official_name": null, "old_name": null, "alt_name": null, "light_rail": null, "website": null, "phone": null, "addr:street": "Branch Brook Park Drive", "addr:postcode": null, "addr:housenumber": null, "addr:city": "Newark", "railway:position": null, "addr:state": "NJ", "train": "yes", "station": null, "short_name": null, "railway:ref": null, "public_transport": "station", "operator": "New Jersey Transit Bus Operations", "network": null, "name": "Branch Brook Park Train Station", "level": null }, "geometry": { "type": "Point", "coordinates": [ -74.1745311, 40.7806464 ] } },
{ "type": "Feature", "properties": { "full_id": "n3416890839", "osm_id": "3416890839", "osm_type": "node", "railway": "station", "type": null, "ref:amtrak": null, "official_name": null, "old_name": null, "alt_name": null, "light_rail": "yes", "website": null, "phone": null, "addr:street": null, "addr:postcode": null, "addr:housenumber": null, "addr:city": "Camden", "railway:position": null, "addr:state": "NJ", "train": "yes", "station": "light_rail", "short_name": null, "railway:ref": null, "public_transport": "station", "operator": "New Jersey Transit", "network": "NJ Transit", "name": "Entertainment Center", "level": null }, "geometry": { "type": "Point", "coordinates": [ -75.1284981, 39.940886 ] } },
{ "type": "Feature", "properties": { "full_id": "n7015002886", "osm_id": "7015002886", "osm_type": "node", "railway": "station", "type": null, "ref:amtrak": null, "official_name": null, "old_name": null, "alt_name": null, "light_rail": null, "website": null, "phone": null, "addr:street": null, "addr:postcode": null, "addr:housenumber": null, "addr:city": null, "railway:position": null, "addr:state": "NJ", "train": "yes", "station": null, "short_name": null, "railway:ref": "EWR", "public_transport": "station", "operator": "Amtrak", "network": "Amtrak;NJ Transit", "name": "Newark Liberty Airport", "level": null }, "geometry": { "type": "Point", "coordinates": [ -74.1907347, 40.7044195 ] } },
{ "type": "Feature", "properties": { "full_id": "n7024801771", "osm_id": "7024801771", "osm_type": "node", "railway": "station", "type": null, "ref:amtrak": null, "official_name": null, "old_name": null, "alt_name": null, "light_rail": null, "website": null, "phone": null, "addr:street": null, "addr:postcode": null, "addr:housenumber": null, "addr:city": null, "railway:position": null, "addr:state": null, "train": "yes", "station": null, "short_name": null, "railway:ref": null, "public_transport": "station", "operator": "New Jersey Transit", "network": "NJ Transit", "name": "Hoboken Terminal", "level": null }, "geometry": { "type": "Point", "coordinates": [ -74.0273829, 40.7349447 ] } },
{ "type": "Feature", "properties": { "full_id": "n7024801764", "osm_id": "7024801764", "osm_type": "node", "railway": "station", "type": null, "ref:amtrak": null, "official_name": "Frank R. Lautenberg Rail Station at Secaucus Junction", "old_name": null, "alt_name": null, "light_rail": null, "website": "https://www.njtransit.com/station/secaucus-junction-station", "phone": null, "addr:street": "New County Road", "addr:postcode": null, "addr:housenumber": "675", "addr:city": "Secaucus", "railway:position": null, "addr:state": "NJ", "train": "yes", "station": null, "short_name": "Secaucus", "railway:ref": null, "public_transport": "station", "operator": "New Jersey Transit Rail Operations", "network": "NJ Transit", "name": "Secaucus Junction", "level": null }, "geometry": { "type": "Point", "coordinates": [ -74.0757547, 40.7613294 ] } },
{ "type": "Feature", "properties": { "full_id": "n7070782097", "osm_id": "7070782097", "osm_type": "node", "railway": "station", "type": null, "ref:amtrak": null, "official_name": null, "old_name": null, "alt_name": null, "light_rail": null, "website": null, "phone": null, "addr:street": null, "addr:postcode": null, "addr:housenumber": null, "addr:city": null, "railway:position": null, "addr:state": null, "train": "yes", "station": null, "short_name": null, "railway:ref": "ACY", "public_transport": "station", "operator": "New Jersey Transit Rail Operations", "network": "NJ Transit", "name": "Atlantic City", "level": null }, "geometry": { "type": "Point", "coordinates": [ -74.4404394, 39.3629978 ] } },
{ "type": "Feature", "properties": { "full_id": "n7070782090", "osm_id": "7070782090", "osm_type": "node", "railway": "station", "type": null, "ref:amtrak": null, "official_name": null, "old_name": null, "alt_name": null, "light_rail": null, "website": null, "phone": null, "addr:street": null, "addr:postcode": null, "addr:housenumber": null, "addr:city": null, "railway:position": null, "addr:state": null, "train": "yes", "station": null, "short_name": null, "railway:ref": null, "public_transport": "station", "operator": "New Jersey Transit Rail Operations", "network": "NJ Transit", "name": "Summit", "level": null }, "geometry": { "type": "Point", "coordinates": [ -74.3576977, 40.7165723 ] } },
{ "type": "Feature", "properties": { "full_id": "n7072644725", "osm_id": "7072644725", "osm_type": "node", "railway": "station", "type": null, "ref:amtrak": null, "official_name": null, "old_name": null, "alt_name": null, "light_rail": null, "website": null, "phone": null, "addr:street": null, "addr:postcode": null, "addr:housenumber": null, "addr:city": null, "railway:position": null, "addr:state": null, "train": "yes", "station": null, "short_name": null, "railway:ref": "LDW", "public_transport": "station", "operator": "New Jersey Transit Rail Operations", "network": "NJ Transit", "name": "Lindenwold", "level": null }, "geometry": { "type": "Point", "coordinates": [ -75.0003711, 39.8338506 ] } },
{ "type": "Feature", "properties": { "full_id": "n7070825320", "osm_id": "7070825320", "osm_type": "node", "railway": "station", "type": null, "ref:amtrak": null, "official_name": null, "old_name": null, "alt_name": null, "light_rail": null, "website": null, "phone": null, "addr:street": null, "addr:postcode": null, "addr:housenumber": null, "addr:city": null, "railway:position": null, "addr:state": null, "train": "yes", "station": null, "short_name": null, "railway:ref": null, "public_transport": "station", "operator": "New Jersey Transit Rail Operations", "network": "NJ Transit", "name": "Princeton", "level": null }, "geometry": { "type": "Point", "coordinates": [ -74.6588346, 40.3421376 ] } },
{ "type": "Feature", "properties": { "full_id": "n7007201154", "osm_id": "7007201154", "osm_type": "node", "railway": "station", "type": null, "ref:amtrak": null, "official_name": null, "old_name": null, "alt_name": null, "light_rail": null, "website": null, "phone": null, "addr:street": "North Avenue", "addr:postcode": null, "addr:housenumber": "1180", "addr:city": "Elizabeth", "railway:position": "mi:13.0", "addr:state": "NJ", "train": "yes", "station": null, "short_name": null, "railway:ref": null, "public_transport": "station", "operator": "New Jersey Transit Rail Operations", "network": "NJ Transit", "name": "North Elizabeth", "level": null }, "geometry": { "type": "Point", "coordinates": [ -74.2062038, 40.6802119 ] } },
{ "type": "Feature", "properties": { "full_id": "n7007201153", "osm_id": "7007201153", "osm_type": "node", "railway": "station", "type": null, "ref:amtrak": null, "official_name": null, "old_name": null, "alt_name": null, "light_rail": null, "website": null, "phone": null, "addr:street": null, "addr:postcode": null, "addr:housenumber": null, "addr:city": null, "railway:position": null, "addr:state": null, "train": "yes", "station": null, "short_name": null, "railway:ref": null, "public_transport": "station", "operator": "New Jersey Transit Rail Operations", "network": "NJ Transit", "name": "Newark Broad Street", "level": null }, "geometry": { "type": "Point", "coordinates": [ -74.1718801, 40.7476225 ] } },
{ "type": "Feature", "properties": { "full_id": "n7073770711", "osm_id": "7073770711", "osm_type": "node", "railway": "station", "type": null, "ref:amtrak": null, "official_name": null, "old_name": null, "alt_name": null, "light_rail": null, "website": null, "phone": null, "addr:street": null, "addr:postcode": null, "addr:housenumber": null, "addr:city": null, "railway:position": "mi:53.0", "addr:state": null, "train": "yes", "station": null, "short_name": null, "railway:ref": null, "public_transport": "station", "operator": "New Jersey Transit Rail Operations", "network": "NJ Transit", "name": "Hamilton", "level": null }, "geometry": { "type": "Point", "coordinates": [ -74.7040312, 40.2553663 ] } },
{ "type": "Feature", "properties": { "full_id": "n7007201160", "osm_id": "7007201160", "osm_type": "node", "railway": "station", "type": null, "ref:amtrak": null, "official_name": null, "old_name": null, "alt_name": null, "light_rail": null, "website": null, "phone": null, "addr:street": null, "addr:postcode": null, "addr:housenumber": null, "addr:city": null, "railway:position": "mi:28.9", "addr:state": null, "train": "yes", "station": null, "short_name": null, "railway:ref": null, "public_transport": "station", "operator": "New Jersey Transit Rail Operations", "network": "NJ Transit", "name": "Edison", "level": null }, "geometry": { "type": "Point", "coordinates": [ -74.4117555, 40.51877 ] } },
{ "type": "Feature", "properties": { "full_id": "n7007213718", "osm_id": "7007213718", "osm_type": "node", "railway": "station", "type": null, "ref:amtrak": null, "official_name": null, "old_name": null, "alt_name": null, "light_rail": null, "website": null, "phone": null, "addr:street": null, "addr:postcode": null, "addr:housenumber": null, "addr:city": null, "railway:position": null, "addr:state": null, "train": "yes", "station": null, "short_name": null, "railway:ref": null, "public_transport": "station", "operator": "New Jersey Transit", "network": "NJ Transit", "name": "Ridgewood", "level": null }, "geometry": { "type": "Point", "coordinates": [ -74.1205627, 40.9812503 ] } },
{ "type": "Feature", "properties": { "full_id": "n7007201156", "osm_id": "7007201156", "osm_type": "node", "railway": "station", "type": null, "ref:amtrak": null, "official_name": null, "old_name": null, "alt_name": null, "light_rail": null, "website": null, "phone": null, "addr:street": null, "addr:postcode": null, "addr:housenumber": null, "addr:city": null, "railway:position": "mi:17.3", "addr:state": null, "train": "yes", "station": null, "short_name": null, "railway:ref": null, "public_transport": "station", "operator": "New Jersey Transit Rail Operations", "network": "NJ Transit", "name": "Linden", "level": null }, "geometry": { "type": "Point", "coordinates": [ -74.2517558, 40.6295105 ] } },
{ "type": "Feature", "properties": { "full_id": "n7007201155", "osm_id": "7007201155", "osm_type": "node", "railway": "station", "type": null, "ref:amtrak": null, "official_name": null, "old_name": null, "alt_name": null, "light_rail": null, "website": null, "phone": null, "addr:street": null, "addr:postcode": null, "addr:housenumber": null, "addr:city": null, "railway:position": "mi:14.1", "addr:state": null, "train": "yes", "station": null, "short_name": null, "railway:ref": null, "public_transport": "station", "operator": "New Jersey Transit Rail Operations", "network": "NJ Transit", "name": "Elizabeth", "level": null }, "geometry": { "type": "Point", "coordinates": [ -74.2155129, 40.667417 ] } },
{ "type": "Feature", "properties": { "full_id": "n4328699825", "osm_id": "4328699825", "osm_type": "node", "railway": "station", "type": null, "ref:amtrak": null, "official_name": null, "old_name": null, "alt_name": null, "light_rail": null, "website": null, "phone": null, "addr:street": "North Avenue", "addr:postcode": null, "addr:housenumber": null, "addr:city": "Plainfield", "railway:position": null, "addr:state": "NJ", "train": "yes", "station": null, "short_name": null, "railway:ref": null, "public_transport": "station", "operator": "New Jersey Transit Rail Operations", "network": "NJ Transit", "name": "Plainfield", "level": null }, "geometry": { "type": "Point", "coordinates": [ -74.4204136, 40.6184159 ] } },
{ "type": "Feature", "properties": { "full_id": "n7007201159", "osm_id": "7007201159", "osm_type": "node", "railway": "station", "type": null, "ref:amtrak": null, "official_name": null, "old_name": null, "alt_name": null, "light_rail": null, "website": null, "phone": null, "addr:street": null, "addr:postcode": null, "addr:housenumber": null, "addr:city": null, "railway:position": "mi:25.8", "addr:state": null, "train": "yes", "station": null, "short_name": null, "railway:ref": null, "public_transport": "station", "operator": "New Jersey Transit Rail Operations", "network": "NJ Transit", "name": "Metuchen", "level": null }, "geometry": { "type": "Point", "coordinates": [ -74.3603879, 40.5408318 ] } },
{ "type": "Feature", "properties": { "full_id": "n7007201158", "osm_id": "7007201158", "osm_type": "node", "railway": "station", "type": null, "ref:amtrak": null, "official_name": null, "old_name": null, "alt_name": null, "light_rail": null, "website": null, "phone": null, "addr:street": null, "addr:postcode": null, "addr:housenumber": null, "addr:city": null, "railway:position": "mi:19.5", "addr:state": null, "train": "yes", "station": null, "short_name": null, "railway:ref": null, "public_transport": "station", "operator": "New Jersey Transit Rail Operations", "network": "NJ Transit", "name": "Rahway", "level": null }, "geometry": { "type": "Point", "coordinates": [ -74.2765099, 40.6061435 ] } },
{ "type": "Feature", "properties": { "full_id": "n7007251483", "osm_id": "7007251483", "osm_type": "node", "railway": "station", "type": null, "ref:amtrak": null, "official_name": null, "old_name": null, "alt_name": null, "light_rail": null, "website": null, "phone": null, "addr:street": null, "addr:postcode": null, "addr:housenumber": null, "addr:city": null, "railway:position": null, "addr:state": null, "train": "yes", "station": null, "short_name": null, "railway:ref": null, "public_transport": "station", "operator": "New Jersey Transit", "network": "NJ Transit", "name": "Mount Arlington", "level": null }, "geometry": { "type": "Point", "coordinates": [ -74.6327945, 40.896523 ] } },
{ "type": "Feature", "properties": { "full_id": "n6097540131", "osm_id": "6097540131", "osm_type": "node", "railway": "station", "type": null, "ref:amtrak": null, "official_name": null, "old_name": null, "alt_name": null, "light_rail": null, "website": null, "phone": null, "addr:street": null, "addr:postcode": null, "addr:housenumber": null, "addr:city": null, "railway:position": null, "addr:state": "PA", "train": "yes", "station": null, "short_name": null, "railway:ref": "PHL", "public_transport": "station", "operator": "Amtrak", "network": "Amtrak;SEPTA;NJ Transit", "name": "Philadelphia 30th Street Station", "level": null }, "geometry": { "type": "Point", "coordinates": [ -75.1819051, 39.9559304 ] } }
]
}
