{
  "type": "FeatureCollection",
  "features": [
    {
      "id": "SGz7nTyK7T52o4phBGQVf2RAeBb27sNs",
      "type": "Feature",
      "properties": {
        "id": "BK-001",
        "business_id": "",
        "priority": "S",
        "img": "HK-BK-001",
        "category": "live_and_w"
      },
      "geometry": {
        "coordinates": [
          -73.52521937403245,
          40.76670061971679
        ],
        "type": "Point"
      }
    },
    {
      "id": "EEVGMKNfjywoZi0yNBHiBTWCSJDXLAiQ",
      "type": "Feature",
      "properties": {
        "id": "BK-002",
        "business_id": "",
        "priority": "S",
        "img": "HK-BK-002",
        "category": "live_and_w"
      },
      "geometry": {
        "coordinates": [
          -73.52213637974495,
          40.75967337691971
        ],
        "type": "Point"
      }
    },
    {
      "id": "h3M24BeOg4wLYS9jCXvFbVTDMdvdjMZt",
      "type": "Feature",
      "properties": {
        "id": "BK-003",
        "business_id": "",
        "priority": "S",
        "img": "HK-BK-003",
        "category": "live_and_w"
      },
      "geometry": {
        "coordinates": [
          -73.53199934846144,
          40.76665978012353
        ],
        "type": "Point"
      }
    },
    {
      "id": "Bllfmmb6C1gxVkO7mvCaqgYY4Y2b1ubu",
      "type": "Feature",
      "properties": {
        "id": "BK-004",
        "business_id": "",
        "priority": "S",
        "img": "HK-BK-004",
        "category": "live_and_w"
      },
      "geometry": {
        "coordinates": [
          -73.52994124291179,
          40.77066334015534
        ],
        "type": "Point"
      }
    },
    {
      "id": "JmQyIjSTf6HKsCHGMX9WBVJJyPm3F1my",
      "type": "Feature",
      "properties": {
        "id": "BK-005",
        "business_id": "",
        "priority": "S",
        "img": "HK-BK-005",
        "category": "live_and_w"
      },
      "geometry": {
        "coordinates": [
          -73.52847649399997,
          40.772705878
        ],
        "type": "Point"
      }
    },
    {
      "id": "402hm0ISLZMY3bhRrSBPlmxwrZyugUQI",
      "type": "Feature",
      "properties": {
        "id": "BK-006",
        "business_id": "",
        "priority": "S",
        "img": "HK-BK-006",
        "category": "live_and_w"
      },
      "geometry": {
        "coordinates": [
          -73.52140182778632,
          40.76747685252472
        ],
        "type": "Point"
      }
    },
    {
      "id": "lTnLxuYGTxa2VK1c6JHeVudh4WpRU8eo",
      "type": "Feature",
      "properties": {
        "id": "BK-007",
        "business_id": "",
        "priority": "S",
        "img": "HK-BK-007",
        "category": "live_and_w"
      },
      "geometry": {
        "coordinates": [
          -73.52581670373941,
          40.77033652827335
        ],
        "type": "Point"
      }
    },
    {
      "id": "j3FTWsd2ROLtEn4yIFypfFyuWlrqlucZ",
      "type": "Feature",
      "properties": {
        "id": "BK-008",
        "business_id": "",
        "priority": "S",
        "img": "HK-BK-008",
        "category": "live_and_w"
      },
      "geometry": {
        "coordinates": [
          -73.51647649399996,
          40.772705878
        ],
        "type": "Point"
      }
    },
    {
      "id": "edeHgu1EPwFLIiyHcgLC7pF3QNxu7X78",
      "type": "Feature",
      "properties": {
        "id": "BK-009",
        "business_id": "",
        "priority": "S",
        "img": "HK-BK-009",
        "category": "live_and_w"
      },
      "geometry": {
        "coordinates": [
          -73.51954283213902,
          40.7632688223044
        ],
        "type": "Point"
      }
    },
    {
      "id": "sSULZb9HkgKjFEiCgOXht66AuhFfefYi",
      "type": "Feature",
      "properties": {
        "id": "BK-010",
        "business_id": "",
        "priority": "S",
        "img": "HK-BK-010",
        "category": "live_and_w"
      },
      "geometry": {
        "coordinates": [
          -73.51775443415248,
          40.7668231954075
        ],
        "type": "Point"
      }
    },
    {
      "id": "XRKwZ4RTGduZy4Ia9Gf1rEDEAvMCh7aw",
      "type": "Feature",
      "properties": {
        "id": "BK-011",
        "business_id": "",
        "priority": "S",
        "img": "HK-BK-011",
        "category": "live_and_w"
      },
      "geometry": {
        "coordinates": [
          -73.52254690069265,
          40.77107185375131
        ],
        "type": "Point"
      }
    },
    {
      "id": "vISLMAuVhyeWWXv7Gg3Z9MxLSjJW41xL",
      "type": "Feature",
      "properties": {
        "id": "BK-012",
        "business_id": "",
        "priority": "S",
        "img": "HK-BK-012",
        "category": "live_and_w"
      },
      "geometry": {
        "coordinates": [
          -73.52894133839548,
          40.76658150560579
        ],
        "type": "Point"
      }
    },
    {
      "id": "j3BRUyRl6YNROdnQjY887wj3yHFWxpVF",
      "type": "Feature",
      "properties": {
        "id": "BK-013",
        "business_id": "",
        "priority": "S",
        "img": "HK-BK-013",
        "category": "live_and_w"
      },
      "geometry": {
        "coordinates": [
          -73.52979607452183,
          40.76355824951941
        ],
        "type": "Point"
      }
    },
    {
      "id": "95uPOfpKdsLbSau3SxUtI6Nx3OGX9I92",
      "type": "Feature",
      "properties": {
        "id": "BK-014",
        "business_id": "",
        "priority": "S",
        "img": "HK-BK-014",
        "category": "live_and_w"
      },
      "geometry": {
        "coordinates": [
          -73.53582919584987,
          40.76772540739319
        ],
        "type": "Point"
      }
    },
    {
      "id": "fZ888K8MPAddhUlZhGr8LC74pbd23izF",
      "type": "Feature",
      "properties": {
        "id": "BK-015",
        "business_id": "",
        "priority": "S",
        "img": "HK-BK-015",
        "category": "live_and_w"
      },
      "geometry": {
        "coordinates": [
          -73.53247649399998,
          40.768705878
        ],
        "type": "Point"
      }
    },
    {
      "id": "7kP9Y1srtkqiwxXgAtUtrJDEE9gzczXa",
      "type": "Feature",
      "properties": {
        "id": "BK-016",
        "business_id": "",
        "priority": "S",
        "img": "HK-BK-016",
        "category": "live_and_w"
      },
      "geometry": {
        "coordinates": [
          -73.52847649399997,
          40.768705878
        ],
        "type": "Point"
      }
    },
    {
      "id": "lGAN6OXzMEQK2X8qfonfzIYXfLOmOfxU",
      "type": "Feature",
      "properties": {
        "id": "BK-017",
        "business_id": "",
        "priority": "S",
        "img": "HK-BK-017",
        "category": "live_and_w"
      },
      "geometry": {
        "coordinates": [
          -73.52447649399997,
          40.768705878
        ],
        "type": "Point"
      }
    },
    {
      "id": "qYZmOYBSFRFxPkl9yjopOtsG6Wtig6x5",
      "type": "Feature",
      "properties": {
        "id": "BK-018",
        "business_id": "",
        "priority": "S",
        "img": "HK-BK-018",
        "category": "live_and_w"
      },
      "geometry": {
        "coordinates": [
          -73.52047649399996,
          40.768705878
        ],
        "type": "Point"
      }
    },
    {
      "id": "DoxYC0LLTm6u3mILgKEWDPulEgEXwMlG",
      "type": "Feature",
      "properties": {
        "id": "BK-019",
        "business_id": "",
        "priority": "S",
        "img": "HK-BK-019",
        "category": "live_and_w"
      },
      "geometry": {
        "coordinates": [
          -73.51647649399996,
          40.768705878
        ],
        "type": "Point"
      }
    },
    {
      "id": "GQzZrdrMkDUDFKipvflULZ4HScPH02RY",
      "type": "Feature",
      "properties": {
        "id": "BK-020",
        "business_id": "",
        "priority": "S",
        "img": "HK-BK-020",
        "category": "live_and_w"
      },
      "geometry": {
        "coordinates": [
          -73.51981253970213,
          40.7620874247368
        ],
        "type": "Point"
      }
    },
    {
      "id": "plYJtHSaa7RvhnCLmlcCOWTrnWU9yNza",
      "type": "Feature",
      "properties": {
        "id": "BK-021",
        "business_id": "",
        "priority": "S",
        "img": "HK-BK-021",
        "category": "live_and_w"
      },
      "geometry": {
        "coordinates": [
          -73.51872538137735,
          40.770462514005324
        ],
        "type": "Point"
      }
    },
    {
      "id": "a3AQ8ftoyNIwKYPHiQmk73h1SFzaXSmx",
      "type": "Feature",
      "properties": {
        "id": "BK-022",
        "business_id": "",
        "priority": "S",
        "img": "HK-BK-022",
        "category": "live_and_w"
      },
      "geometry": {
        "coordinates": [
          -73.51558844557749,
          40.76282284459828
        ],
        "type": "Point"
      }
    },
    {
      "id": "5LqD13VoGcfNFoAIBqFRW0WBVImOekel",
      "type": "Feature",
      "properties": {
        "id": "BK-023",
        "business_id": "",
        "priority": "S",
        "img": "HK-BK-023",
        "category": "live_and_w"
      },
      "geometry": {
        "coordinates": [
          -73.53206994612147,
          40.762867375402465
        ],
        "type": "Point"
      }
    },
    {
      "id": "LJJEGWs4qyolXs8SMWt1Y6TTV0wXEohT",
      "type": "Feature",
      "properties": {
        "id": "BK-024",
        "business_id": "",
        "priority": "S",
        "img": "HK-BK-024",
        "category": "live_and_w"
      },
      "geometry": {
        "coordinates": [
          -73.52666746679655,
          40.76262223659907
        ],
        "type": "Point"
      }
    },
    {
      "id": "F7029cEK9omUpGSuroNC2CE4hw7NK4cI",
      "type": "Feature",
      "properties": {
        "id": "BK-025",
        "business_id": "",
        "priority": "S",
        "img": "HK-BK-025",
        "category": "live_and_w"
      },
      "geometry": {
        "coordinates": [
          -73.51997039117065,
          40.76593151965088
        ],
        "type": "Point"
      }
    },
    {
      "id": "JJPa8wOTLQsuXDwn21msl4pVdSopGNHX",
      "type": "Feature",
      "properties": {
        "id": "BK-026",
        "business_id": "",
        "priority": "S",
        "img": "HK-BK-026",
        "category": "live_and_w"
      },
      "geometry": {
        "coordinates": [
          -73.53247649399998,
          40.764705878
        ],
        "type": "Point"
      }
    },
    {
      "id": "TXs1fkjEegBHjjBE65FFRUgbrP7zqd15",
      "type": "Feature",
      "properties": {
        "id": "BK-027",
        "business_id": "",
        "priority": "S",
        "img": "HK-BK-027",
        "category": "live_and_w"
      },
      "geometry": {
        "coordinates": [
          -73.52847649399997,
          40.764705878
        ],
        "type": "Point"
      }
    },
    {
      "id": "IVpM4TMFEnbMyzwiM1zVlvemXk5DFNPa",
      "type": "Feature",
      "properties": {
        "id": "BK-028",
        "business_id": "",
        "priority": "S",
        "img": "HK-BK-028",
        "category": "live_and_w"
      },
      "geometry": {
        "coordinates": [
          -73.52328978072435,
          40.764787588247344
        ],
        "type": "Point"
      }
    },
    {
      "id": "bBvqtlnovsZEGMoZv33AmkweGWP7dWKf",
      "type": "Feature",
      "properties": {
        "id": "BK-029",
        "business_id": "",
        "priority": "S",
        "img": "HK-BK-029",
        "category": "live_and_w"
      },
      "geometry": {
        "coordinates": [
          -73.52047649399996,
          40.764705878
        ],
        "type": "Point"
      }
    },
    {
      "id": "e4fQR4U3kTyzcJpTRr8EiAXAWLtvLwEo",
      "type": "Feature",
      "properties": {
        "id": "BK-030",
        "business_id": "",
        "priority": "S",
        "img": "HK-BK-030",
        "category": "live_and_w"
      },
      "geometry": {
        "coordinates": [
          -73.51647649399996,
          40.764705878
        ],
        "type": "Point"
      }
    },
    {
      "id": "0SnYM8qLf9AujJlzJc2ufWBBPrGsplhM",
      "type": "Feature",
      "properties": {
        "id": "BK-031",
        "business_id": "",
        "priority": "S",
        "img": "HK-BK-031",
        "category": "live_and_w"
      },
      "geometry": {
        "coordinates": [
          -73.52677099481652,
          40.76772908677202
        ],
        "type": "Point"
      }
    },
    {
      "id": "yVfm802lmTnRD9qx4OWwY66Xy0z4v6nH",
      "type": "Feature",
      "properties": {
        "id": "BK-032",
        "business_id": "",
        "priority": "S",
        "img": "HK-BK-032",
        "category": "live_and_w"
      },
      "geometry": {
        "coordinates": [
          -73.51802414171486,
          40.76548211992477
        ],
        "type": "Point"
      }
    },
    {
      "id": "57uiK8U8vFbyTLpPxpRCXLX2l5Ton8FZ",
      "type": "Feature",
      "properties": {
        "id": "BK-033",
        "business_id": "",
        "priority": "S",
        "img": "HK-BK-033",
        "category": "live_and_w"
      },
      "geometry": {
        "coordinates": [
          -73.51445567381495,
          40.759639649175284
        ],
        "type": "Point"
      }
    },
    {
      "id": "52OV8FRmVwgIvqaDIAOSiyjOffWiPBHa",
      "type": "Feature",
      "properties": {
        "id": "BK-034",
        "business_id": "",
        "priority": "S",
        "img": "HK-BK-034",
        "category": "live_and_w"
      },
      "geometry": {
        "coordinates": [
          -73.52958863654635,
          40.75870382988847
        ],
        "type": "Point"
      }
    },
    {
      "id": "z0M7YwGxBLnQdCqA8TS09RH0o2jdjJGY",
      "type": "Feature",
      "properties": {
        "id": "BK-035",
        "business_id": "",
        "priority": "S",
        "img": "HK-BK-035",
        "category": "live_and_w"
      },
      "geometry": {
        "coordinates": [
          -73.53405745401106,
          40.76172730914305
        ],
        "type": "Point"
      }
    },
    {
      "id": "GszpSNtIS8lUq8Gs6VBirLh08DNAWSP5",
      "type": "Feature",
      "properties": {
        "id": "BK-036",
        "business_id": "",
        "priority": "S",
        "img": "HK-BK-036",
        "category": "live_and_w"
      },
      "geometry": {
        "coordinates": [
          -73.52412388763379,
          40.75907155538567
        ],
        "type": "Point"
      }
    },
    {
      "id": "us69YFj075QrA1Y9WqKsj3d393EgFoeK",
      "type": "Feature",
      "properties": {
        "id": "BK-037",
        "business_id": "",
        "priority": "S",
        "img": "HK-BK-037",
        "category": "live_and_w"
      },
      "geometry": {
        "coordinates": [
          -73.53247649399998,
          40.760705878
        ],
        "type": "Point"
      }
    },
    {
      "id": "GFOuRSn9WI8QC02PwYaPs9qDrUi1XmP0",
      "type": "Feature",
      "properties": {
        "id": "BK-038",
        "business_id": "",
        "priority": "S",
        "img": "HK-BK-038",
        "category": "live_and_w"
      },
      "geometry": {
        "coordinates": [
          -73.52847649399997,
          40.760705878
        ],
        "type": "Point"
      }
    },
    {
      "id": "pT1L7VIiykLSYRI9zLToZ4i0c90Jawdc",
      "type": "Feature",
      "properties": {
        "id": "BK-039",
        "business_id": "",
        "priority": "S",
        "img": "HK-BK-039",
        "category": "live_and_w"
      },
      "geometry": {
        "coordinates": [
          -73.52447649399997,
          40.760705878
        ],
        "type": "Point"
      }
    },
    {
      "id": "7NsQ3Ztd9PtWdadjvS272ugFnHhk0QYP",
      "type": "Feature",
      "properties": {
        "id": "BK-040",
        "business_id": "",
        "priority": "S",
        "img": "HK-BK-040",
        "category": "live_and_w"
      },
      "geometry": {
        "coordinates": [
          -73.51966737131211,
          40.76062416282337
        ],
        "type": "Point"
      }
    },
    {
      "id": "AR8mvJzPn6Bj4MsOcR1WgSggyNpQH23m",
      "type": "Feature",
      "properties": {
        "id": "BK-041",
        "business_id": "",
        "priority": "S",
        "img": "HK-BK-041",
        "category": "live_and_w"
      },
      "geometry": {
        "coordinates": [
          -73.51647649399996,
          40.760705878
        ],
        "type": "Point"
      }
    },
    {
      "id": "dakN0qFw2ohrq9lpBogpV1d3scuWDm4h",
      "type": "Feature",
      "properties": {
        "id": "BK-042",
        "business_id": "",
        "priority": "S",
        "img": "HK-BK-042",
        "category": "live_and_w"
      },
      "geometry": {
        "coordinates": [
          -73.51247649399996,
          40.760705878
        ],
        "type": "Point"
      }
    },
    {
      "id": "TqNANXLqziEBPKODfpJ3XSK86UTiQuul",
      "type": "Feature",
      "properties": {
        "id": "BK-043",
        "business_id": "",
        "priority": "S",
        "img": "HK-BK-043",
        "category": "live_and_w"
      },
      "geometry": {
        "coordinates": [
          -73.51376276222636,
          40.76225844153844
        ],
        "type": "Point"
      }
    },
    {
      "id": "PaC5vVPrfOHmfhm9tzGRYkw2maZGF7Ge",
      "type": "Feature",
      "properties": {
        "id": "BK-044",
        "business_id": "",
        "priority": "S",
        "img": "HK-BK-044",
        "category": "live_and_w"
      },
      "geometry": {
        "coordinates": [
          -73.51995770809138,
          40.77177734855956
        ],
        "type": "Point"
      }
    },
    {
      "id": "uUTZ0PAgeTF0p3sIaaAWawnZxZKtu9o2",
      "type": "Feature",
      "properties": {
        "id": "BK-045",
        "business_id": "",
        "priority": "S",
        "img": "HK-BK-045",
        "category": "live_and_w"
      },
      "geometry": {
        "coordinates": [
          -73.52651397033269,
          40.75977030857732
        ],
        "type": "Point"
      }
    },
    {
      "id": "krPrfKdfUtcANH2hlRLKJsAet5sRNTI4",
      "type": "Feature",
      "properties": {
        "id": "BK-046",
        "business_id": "",
        "priority": "S",
        "img": "HK-BK-046",
        "category": "live_and_w"
      },
      "geometry": {
        "coordinates": [
          -73.52499527990854,
          40.76365171010526
        ],
        "type": "Point"
      }
    },
    {
      "id": "vQBbCSb56z2tQPiDBTyjdF7jh5t1Vqen",
      "type": "Feature",
      "properties": {
        "id": "BK-047",
        "business_id": "",
        "priority": "S",
        "img": "HK-BK-047",
        "category": "live_and_w"
      },
      "geometry": {
        "coordinates": [
          -73.52611972359722,
          40.76136376004772
        ],
        "type": "Point"
      }
    },
    {
      "id": "ZPBOKAIiJoSPMVMwz6v3LqOh9aOmq5a9",
      "type": "Feature",
      "properties": {
        "id": "BK-048",
        "business_id": "",
        "priority": "S",
        "img": "HK-BK-048",
        "category": "live_and_w"
      },
      "geometry": {
        "coordinates": [
          -73.53247649399998,
          40.75887142667532
        ],
        "type": "Point"
      }
    },
    {
      "id": "WIxSxfvse2afX1ZRDvP2uZTSMUHYGEXj",
      "type": "Feature",
      "properties": {
        "id": "BK-049",
        "business_id": "",
        "priority": "S",
        "img": "HK-BK-049",
        "category": "live_and_w"
      },
      "geometry": {
        "coordinates": [
          -73.52227322006036,
          40.761404608946954
        ],
        "type": "Point"
      }
    },
    {
      "id": "L5hKl1jUztm882xam0bGWkaRhxri54X3",
      "type": "Feature",
      "properties": {
        "id": "BK-050",
        "business_id": "",
        "priority": "S",
        "img": "HK-BK-050",
        "category": "live_and_w"
      },
      "geometry": {
        "coordinates": [
          -73.52544744122551,
          40.76504080037237
        ],
        "type": "Point"
      }
    }
  ]
}