{
"type": "FeatureCollection",
"name": "background-art",
"crs": { "type": "name", "properties": { "name": "urn:ogc:def:crs:OGC:1.3:CRS84" } },
"features": [
{ "type": "Feature", "properties": { "id": "BK-001", "business_id": "", "priority": "S", "img": "HK-BK-001", "category": "live_and_w" }, "geometry": { "type": "Point", "coordinates": [ -73.544476494, 40.772705878 ] } },
{ "type": "Feature", "properties": { "id": "BK-002", "business_id": "", "priority": "S", "img": "HK-BK-002", "category": "live_and_w" }, "geometry": { "type": "Point", "coordinates": [ -73.540476493999989, 40.772705878 ] } },
{ "type": "Feature", "properties": { "id": "BK-003", "business_id": "", "priority": "S", "img": "HK-BK-003", "category": "live_and_w" }, "geometry": { "type": "Point", "coordinates": [ -73.536476493999984, 40.772705878 ] } },
{ "type": "Feature", "properties": { "id": "BK-004", "business_id": "", "priority": "S", "img": "HK-BK-004", "category": "live_and_w" }, "geometry": { "type": "Point", "coordinates": [ -73.53247649399998, 40.772705878 ] } },
{ "type": "Feature", "properties": { "id": "BK-005", "business_id": "", "priority": "S", "img": "HK-BK-005", "category": "live_and_w" }, "geometry": { "type": "Point", "coordinates": [ -73.528476493999975, 40.772705878 ] } },
{ "type": "Feature", "properties": { "id": "BK-006", "business_id": "", "priority": "S", "img": "HK-BK-006", "category": "live_and_w" }, "geometry": { "type": "Point", "coordinates": [ -73.52447649399997, 40.772705878 ] } },
{ "type": "Feature", "properties": { "id": "BK-007", "business_id": "", "priority": "S", "img": "HK-BK-007", "category": "live_and_w" }, "geometry": { "type": "Point", "coordinates": [ -73.520476493999965, 40.772705878 ] } },
{ "type": "Feature", "properties": { "id": "BK-008", "business_id": "", "priority": "S", "img": "HK-BK-008", "category": "live_and_w" }, "geometry": { "type": "Point", "coordinates": [ -73.51647649399996, 40.772705878 ] } },
{ "type": "Feature", "properties": { "id": "BK-009", "business_id": "", "priority": "S", "img": "HK-BK-009", "category": "live_and_w" }, "geometry": { "type": "Point", "coordinates": [ -73.512476493999955, 40.772705878 ] } },
{ "type": "Feature", "properties": { "id": "BK-010", "business_id": "", "priority": "S", "img": "HK-BK-010", "category": "live_and_w" }, "geometry": { "type": "Point", "coordinates": [ -73.50847649399995, 40.772705878 ] } },
{ "type": "Feature", "properties": { "id": "BK-011", "business_id": "", "priority": "S", "img": "HK-BK-011", "category": "live_and_w" }, "geometry": { "type": "Point", "coordinates": [ -73.504476493999945, 40.772705878 ] } },
{ "type": "Feature", "properties": { "id": "BK-012", "business_id": "", "priority": "S", "img": "HK-BK-012", "category": "live_and_w" }, "geometry": { "type": "Point", "coordinates": [ -73.544476494, 40.768705878 ] } },
{ "type": "Feature", "properties": { "id": "BK-013", "business_id": "", "priority": "S", "img": "HK-BK-013", "category": "live_and_w" }, "geometry": { "type": "Point", "coordinates": [ -73.540476493999989, 40.768705878 ] } },
{ "type": "Feature", "properties": { "id": "BK-014", "business_id": "", "priority": "S", "img": "HK-BK-014", "category": "live_and_w" }, "geometry": { "type": "Point", "coordinates": [ -73.536476493999984, 40.768705878 ] } },
{ "type": "Feature", "properties": { "id": "BK-015", "business_id": "", "priority": "S", "img": "HK-BK-015", "category": "live_and_w" }, "geometry": { "type": "Point", "coordinates": [ -73.53247649399998, 40.768705878 ] } },
{ "type": "Feature", "properties": { "id": "BK-016", "business_id": "", "priority": "S", "img": "HK-BK-016", "category": "live_and_w" }, "geometry": { "type": "Point", "coordinates": [ -73.528476493999975, 40.768705878 ] } },
{ "type": "Feature", "properties": { "id": "BK-017", "business_id": "", "priority": "S", "img": "HK-BK-017", "category": "live_and_w" }, "geometry": { "type": "Point", "coordinates": [ -73.52447649399997, 40.768705878 ] } },
{ "type": "Feature", "properties": { "id": "BK-018", "business_id": "", "priority": "S", "img": "HK-BK-018", "category": "live_and_w" }, "geometry": { "type": "Point", "coordinates": [ -73.520476493999965, 40.768705878 ] } },
{ "type": "Feature", "properties": { "id": "BK-019", "business_id": "", "priority": "S", "img": "HK-BK-019", "category": "live_and_w" }, "geometry": { "type": "Point", "coordinates": [ -73.51647649399996, 40.768705878 ] } },
{ "type": "Feature", "properties": { "id": "BK-020", "business_id": "", "priority": "S", "img": "HK-BK-020", "category": "live_and_w" }, "geometry": { "type": "Point", "coordinates": [ -73.512476493999955, 40.768705878 ] } },
{ "type": "Feature", "properties": { "id": "BK-021", "business_id": "", "priority": "S", "img": "HK-BK-021", "category": "live_and_w" }, "geometry": { "type": "Point", "coordinates": [ -73.50847649399995, 40.768705878 ] } },
{ "type": "Feature", "properties": { "id": "BK-022", "business_id": "", "priority": "S", "img": "HK-BK-022", "category": "live_and_w" }, "geometry": { "type": "Point", "coordinates": [ -73.504476493999945, 40.768705878 ] } },
{ "type": "Feature", "properties": { "id": "BK-023", "business_id": "", "priority": "S", "img": "HK-BK-023", "category": "live_and_w" }, "geometry": { "type": "Point", "coordinates": [ -73.544476494, 40.764705878 ] } },
{ "type": "Feature", "properties": { "id": "BK-024", "business_id": "", "priority": "S", "img": "HK-BK-024", "category": "live_and_w" }, "geometry": { "type": "Point", "coordinates": [ -73.540476493999989, 40.764705878 ] } },
{ "type": "Feature", "properties": { "id": "BK-025", "business_id": "", "priority": "S", "img": "HK-BK-025", "category": "live_and_w" }, "geometry": { "type": "Point", "coordinates": [ -73.536476493999984, 40.764705878 ] } },
{ "type": "Feature", "properties": { "id": "BK-026", "business_id": "", "priority": "S", "img": "HK-BK-026", "category": "live_and_w" }, "geometry": { "type": "Point", "coordinates": [ -73.53247649399998, 40.764705878 ] } },
{ "type": "Feature", "properties": { "id": "BK-027", "business_id": "", "priority": "S", "img": "HK-BK-027", "category": "live_and_w" }, "geometry": { "type": "Point", "coordinates": [ -73.528476493999975, 40.764705878 ] } },
{ "type": "Feature", "properties": { "id": "BK-028", "business_id": "", "priority": "S", "img": "HK-BK-028", "category": "live_and_w" }, "geometry": { "type": "Point", "coordinates": [ -73.52447649399997, 40.764705878 ] } },
{ "type": "Feature", "properties": { "id": "BK-029", "business_id": "", "priority": "S", "img": "HK-BK-029", "category": "live_and_w" }, "geometry": { "type": "Point", "coordinates": [ -73.520476493999965, 40.764705878 ] } },
{ "type": "Feature", "properties": { "id": "BK-030", "business_id": "", "priority": "S", "img": "HK-BK-030", "category": "live_and_w" }, "geometry": { "type": "Point", "coordinates": [ -73.51647649399996, 40.764705878 ] } },
{ "type": "Feature", "properties": { "id": "BK-031", "business_id": "", "priority": "S", "img": "HK-BK-031", "category": "live_and_w" }, "geometry": { "type": "Point", "coordinates": [ -73.512476493999955, 40.764705878 ] } },
{ "type": "Feature", "properties": { "id": "BK-032", "business_id": "", "priority": "S", "img": "HK-BK-032", "category": "live_and_w" }, "geometry": { "type": "Point", "coordinates": [ -73.50847649399995, 40.764705878 ] } },
{ "type": "Feature", "properties": { "id": "BK-033", "business_id": "", "priority": "S", "img": "HK-BK-033", "category": "live_and_w" }, "geometry": { "type": "Point", "coordinates": [ -73.504476493999945, 40.764705878 ] } },
{ "type": "Feature", "properties": { "id": "BK-034", "business_id": "", "priority": "S", "img": "HK-BK-034", "category": "live_and_w" }, "geometry": { "type": "Point", "coordinates": [ -73.544476494, 40.760705878 ] } },
{ "type": "Feature", "properties": { "id": "BK-035", "business_id": "", "priority": "S", "img": "HK-BK-035", "category": "live_and_w" }, "geometry": { "type": "Point", "coordinates": [ -73.540476493999989, 40.760705878 ] } },
{ "type": "Feature", "properties": { "id": "BK-036", "business_id": "", "priority": "S", "img": "HK-BK-036", "category": "live_and_w" }, "geometry": { "type": "Point", "coordinates": [ -73.536476493999984, 40.760705878 ] } },
{ "type": "Feature", "properties": { "id": "BK-037", "business_id": "", "priority": "S", "img": "HK-BK-037", "category": "live_and_w" }, "geometry": { "type": "Point", "coordinates": [ -73.53247649399998, 40.760705878 ] } },
{ "type": "Feature", "properties": { "id": "BK-038", "business_id": "", "priority": "S", "img": "HK-BK-038", "category": "live_and_w" }, "geometry": { "type": "Point", "coordinates": [ -73.528476493999975, 40.760705878 ] } },
{ "type": "Feature", "properties": { "id": "BK-039", "business_id": "", "priority": "S", "img": "HK-BK-039", "category": "live_and_w" }, "geometry": { "type": "Point", "coordinates": [ -73.52447649399997, 40.760705878 ] } },
{ "type": "Feature", "properties": { "id": "BK-040", "business_id": "", "priority": "S", "img": "HK-BK-040", "category": "live_and_w" }, "geometry": { "type": "Point", "coordinates": [ -73.520476493999965, 40.760705878 ] } },
{ "type": "Feature", "properties": { "id": "BK-041", "business_id": "", "priority": "S", "img": "HK-BK-041", "category": "live_and_w" }, "geometry": { "type": "Point", "coordinates": [ -73.51647649399996, 40.760705878 ] } },
{ "type": "Feature", "properties": { "id": "BK-042", "business_id": "", "priority": "S", "img": "HK-BK-042", "category": "live_and_w" }, "geometry": { "type": "Point", "coordinates": [ -73.512476493999955, 40.760705878 ] } },
{ "type": "Feature", "properties": { "id": "BK-043", "business_id": "", "priority": "S", "img": "HK-BK-043", "category": "live_and_w" }, "geometry": { "type": "Point", "coordinates": [ -73.50847649399995, 40.760705878 ] } },
{ "type": "Feature", "properties": { "id": "BK-044", "business_id": "", "priority": "S", "img": "HK-BK-044", "category": "live_and_w" }, "geometry": { "type": "Point", "coordinates": [ -73.504476493999945, 40.760705878 ] } },
{ "type": "Feature", "properties": { "id": "BK-045", "business_id": "", "priority": "S", "img": "HK-BK-045", "category": "live_and_w" }, "geometry": { "type": "Point", "coordinates": [ -73.544476494, 40.756705878 ] } },
{ "type": "Feature", "properties": { "id": "BK-046", "business_id": "", "priority": "S", "img": "HK-BK-046", "category": "live_and_w" }, "geometry": { "type": "Point", "coordinates": [ -73.540476493999989, 40.756705878 ] } },
{ "type": "Feature", "properties": { "id": "BK-047", "business_id": "", "priority": "S", "img": "HK-BK-047", "category": "live_and_w" }, "geometry": { "type": "Point", "coordinates": [ -73.536476493999984, 40.756705878 ] } },
{ "type": "Feature", "properties": { "id": "BK-048", "business_id": "", "priority": "S", "img": "HK-BK-048", "category": "live_and_w" }, "geometry": { "type": "Point", "coordinates": [ -73.53247649399998, 40.756705878 ] } },
{ "type": "Feature", "properties": { "id": "BK-049", "business_id": "", "priority": "S", "img": "HK-BK-049", "category": "live_and_w" }, "geometry": { "type": "Point", "coordinates": [ -73.528476493999975, 40.756705878 ] } },
{ "type": "Feature", "properties": { "id": "BK-050", "business_id": "", "priority": "S", "img": "HK-BK-050", "category": "live_and_w" }, "geometry": { "type": "Point", "coordinates": [ -73.52447649399997, 40.756705878 ] } }
]
}
